state,country,geonameid
Escaldes-Engordany,Andorra,3040051
Andorra la Vella,Andorra,3041563
Umm al Qaywayn,United Arab Emirates,290595
Raʼs al Khaymah,United Arab Emirates,290466
Ash Shāriqah,United Arab Emirates,292672
Dubai,United Arab Emirates,292223
Al Fujayrah,United Arab Emirates,292879
Abu Dhabi,United Arab Emirates,292968
Ajman,United Arab Emirates,292932
Nīmrūz,Afghanistan,1131821
Takhār,Afghanistan,1123230
Herat,Afghanistan,1140026
Jowzjān,Afghanistan,1139049
Ghowr,Afghanistan,1141103
Sar-e Pol,Afghanistan,1127106
Samangān,Afghanistan,1127766
Kunduz,Afghanistan,1135689
Wilāyat-e Baghlān,Afghanistan,1147540
Kabul,Afghanistan,1138958
Faryab,Afghanistan,1142226
Laghmān,Afghanistan,1135022
Balkh,Afghanistan,1147290
Helmand,Afghanistan,1140043
Khowst,Afghanistan,1444362
Kandahār,Afghanistan,1138336
Nangarhār,Afghanistan,1139715
Parvān,Afghanistan,1131054
Badghis,Afghanistan,1147707
Ghaznī,Afghanistan,1141269
Paktia,Afghanistan,1141857
Badakhshan,Afghanistan,1147745
Farah,Afghanistan,1142263
Lowgar,Afghanistan,1134561
Bāmīān,Afghanistan,1147239
Konar,Afghanistan,1135702
Panjshir,Afghanistan,6957555
Saint John,Antigua and Barbuda,3576022
,,
Vlorë,Albania,3183719
Kukës,Albania,782661
Korçë,Albania,782756
Gjirokastër,Albania,783148
Elbasan,Albania,783263
Dibër,Albania,865731
Tiranë,Albania,3183875
Shkodër,Albania,3184081
Fier,Albania,3185672
Lezhë,Albania,3184935
Berat,Albania,3186084
Durrës,Albania,3185728
Syunik Province,Armenia,174875
Ararat Province,Armenia,174991
Yerevan,Armenia,616052
Armavir Province,Armenia,616631
Lori Province,Armenia,616530
Gegharkunik Province,Armenia,828261
Kotayk Province,Armenia,616629
Shirak Province,Armenia,616635
Aragatsotn Province,Armenia,828259
Lunda Sul,Angola,145701
Lunda Norte,Angola,145702
Moxico,Angola,875996
Uíge,Angola,2236566
Zaire,Angola,2236967
Cuanza Norte,Angola,2239076
Malanje,Angola,2239862
Luanda,Angola,2240449
Bengo,Angola,2243598
Cabinda,Angola,2243266
Cuanza Sul,Angola,3349234
Namibe,Angola,3347019
Cuando Cubango,Angola,876337
Huíla,Angola,3347762
Huambo,Angola,3348313
Benguela,Angola,3351663
Bié,Angola,3348078
Buenos Aires,Argentina,3435910
Santa Fe,Argentina,3836277
Buenos Aires F.D.,Argentina,3435910
Entre Rios,Argentina,3434137
Misiones,Argentina,3430657
Corrientes,Argentina,3435217
Chaco,Argentina,3861887
Formosa,Argentina,3433899
Neuquen,Argentina,3843122
Tucumán,Argentina,3836873
Rio Negro,Argentina,3838830
San Juan,Argentina,3837213
Cordoba,Argentina,3860259
Tierra del Fuego,Argentina,3834450
Chubut,Argentina,3861244
Santiago del Estero,Argentina,3835868
Salta,Argentina,3838233
La Pampa,Argentina,3849574
Jujuy,Argentina,3853404
Mendoza,Argentina,3844421
San Luis,Argentina,3837056
Catamarca,Argentina,3862286
Santa Cruz,Argentina,3836350
La Rioja,Argentina,3848949
Eastern District,American Samoa,5880828
Carinthia,Austria,2774686
Lower Austria,Austria,2762137
Vienna,Austria,2761369
Upper Austria,Austria,2772400
Salzburg,Austria,2766824
Vorarlberg,Austria,2762300
Styria,Austria,2778067
Tyrol,Austria,2763586
Mariehamns stad,Aland Islands,9611689
Xankǝndi,Azerbaijan,409421
Saatlı,Azerbaijan,147288
Şuşa,Azerbaijan,409419
Salyan,Azerbaijan,147269
Neftçala,Azerbaijan,147422
Nakhichevan,Azerbaijan,147429
Lənkəran,Azerbaijan,147622
İmişli,Azerbaijan,147983
Füzuli,Azerbaijan,148107
Jalilabad,Azerbaijan,148155
Bilǝsuvar,Azerbaijan,147310
Beyləqan,Azerbaijan,146879
Astara,Azerbaijan,148445
Shirvan,Azerbaijan,409417
Ağdam,Azerbaijan,148619
Zaqatala,Azerbaijan,584596
Baki,Azerbaijan,587084
Yevlax City,Azerbaijan,828307
Goygol Rayon,Azerbaijan,585967
Xaçmaz,Azerbaijan,586001
Ucar,Azerbaijan,584783
Tǝrtǝr,Azerbaijan,409420
Sumqayit,Azerbaijan,584923
Şǝmkir,Azerbaijan,585059
Şamaxı,Azerbaijan,585030
Shaki City,Azerbaijan,828303
Sabirabad,Azerbaijan,585187
Qusar,Azerbaijan,585749
Quba,Azerbaijan,585786
Hacıqabul,Azerbaijan,828315
Qazax,Azerbaijan,585226
Mingǝcevir,Azerbaijan,585514
Kürdǝmir,Azerbaijan,585686
Abşeron,Azerbaijan,587245
Göyçay,Azerbaijan,586427
Gǝncǝ,Azerbaijan,586523
Shabran,Azerbaijan,586725
Bǝrdǝ,Azerbaijan,587056
Ağsu,Azerbaijan,587342
Ağdaş,Azerbaijan,587376
Ağcabǝdi,Azerbaijan,148615
Federation of Bosnia and Herzegovina,Bosnia and Herzegovina,3191281
Republika Srpska,Bosnia and Herzegovina,3230000
Brčko,Bosnia and Herzegovina,3203521
Saint Michael,Barbados,3374036
Rangpur Division,Bangladesh,1185188
Chittagong,Bangladesh,1205733
Dhaka,Bangladesh,1185241
Sylhet,Bangladesh,1185099
Rājshāhi,Bangladesh,1185128
Khulna,Bangladesh,1336135
Barisāl,Bangladesh,1336137
Flanders,Belgium,2797656
Wallonia,Belgium,3337387
Brussels Capital,Belgium,2800866
Plateau-Central,Burkina Faso,6930712
Nord,Burkina Faso,2359608
Boucle du Mouhoun,Burkina Faso,6930701
Centre-Est,Burkina Faso,6930705
Centre-Ouest,Burkina Faso,2358946
Centre-Sud,Burkina Faso,6930708
Centre,Burkina Faso,2359608
Centre-Nord,Burkina Faso,2359608
High-Basins,Burkina Faso,6930710
Est,Burkina Faso,6930705
Sahel,Burkina Faso,6930713
Cascades,Burkina Faso,6930703
Southwest,Burkina Faso,6930714
Yambol,Bulgaria,725578
Vratsa,Bulgaria,725712
Vidin,Bulgaria,725905
Pazardzhik,Bulgaria,728378
Veliko Tŭrnovo,Bulgaria,725993
Varna,Bulgaria,726050
Tŭrgovishte,Bulgaria,864560
Lovech,Bulgaria,729559
Dobrich,Bulgaria,726418
Khaskovo,Bulgaria,730435
Stara Zagora,Bulgaria,726848
Kyustendil,Bulgaria,864554
Sofia-Capital,Bulgaria,727011
Smolyan,Bulgaria,727030
Sliven,Bulgaria,727079
Silistra,Bulgaria,727221
Shumen,Bulgaria,727233
Gabrovo,Bulgaria,731549
Blagoevgrad,Bulgaria,733191
Sofiya,Bulgaria,727011
Ruse,Bulgaria,727523
Razgrad,Bulgaria,727696
Plovdiv,Bulgaria,728193
Pleven,Bulgaria,728203
Pernik,Bulgaria,728330
Montana,Bulgaria,729114
Kŭrdzhali,Bulgaria,729794
Burgas,Bulgaria,732770
Manama,Bahrain,290340
Southern Governorate,Bahrain,290269
Central Governorate,Bahrain,7090973
Muharraq,Bahrain,290332
Makamba,Burundi,422232
Bururi,Burundi,423328
Bujumbura Mairie,Burundi,425378
Muramvya,Burundi,425551
Gitega,Burundi,426272
Ruyigi,Burundi,426700
Ngozi,Burundi,430569
Kayanza,Burundi,430952
Muyinga,Burundi,431748
Rutana,Burundi,433635
Borgou,Benin,2392204
Atakora,Benin,2395524
Collines,Benin,2597272
Plateau,Benin,2597277
Quémé,Benin,2392087
Atlantique,Benin,2395914
Mono,Benin,2392897
Alibori,Benin,2393693
Kouffo,Benin,2597273
Donga,Benin,2394560
Zou,Benin,2395049
Littoral,Benin,2394819
Hamilton city,Bermuda,3573197
Tutong,Brunei,1820071
Belait,Brunei,1820491
Brunei and Muara,Brunei,1820676
Tarija,Bolivia,3903320
Santa Cruz,Bolivia,3904906
Potosí,Bolivia,3907584
El Beni,Bolivia,3923172
Chuquisaca,Bolivia,3920177
Cochabamba,Bolivia,3919968
Oruro,Bolivia,3909234
La Paz,Bolivia,3911925
Pando,Bolivia,3908600
"Bonaire,Bonaire", Saint Eustatius and Saba,7626844
Maranhão,Brazil,3395443
Pernambuco,Brazil,3392268
Pará,Brazil,3405870
Paraíba,Brazil,3393098
Ceará,Brazil,3402362
Alagoas,Brazil,3408096
Piauí,Brazil,3392213
Rio Grande do Norte,Brazil,3390290
Amapá,Brazil,3407762
Bahia,Brazil,3450554
Amazonas,Brazil,3663517
Tocantins,Brazil,3474575
Santa Catarina,Brazil,3450387
São Paulo,Brazil,3448439
Rio de Janeiro,Brazil,3451190
Espírito Santo,Brazil,3463930
Minas Gerais,Brazil,3470127
Rio Grande do Sul,Brazil,3451133
Paraná,Brazil,3455077
Mato Grosso,Brazil,3457419
Goiás,Brazil,3462372
Mato Grosso do Sul,Brazil,3457415
Sergipe,Brazil,3447799
Federal District,Brazil,3469058
Acre,Brazil,3665474
Rondônia,Brazil,3924825
Roraima,Brazil,3662560
New Providence,Bahamas,3571824
Freeport,Bahamas,3572375
Thimphu,Bhutan,1252416
Punakha,Bhutan,1252479
Chukha District,Bhutan,1252484
Chirang,Bhutan,1252608
Central,Botswana,933088
Kweneng,Botswana,933305
South East,Botswana,933044
Southern,Botswana,933860
Kgatleng,Botswana,933654
North West,Botswana,933366
North East,Botswana,933210
Minsk,Belarus,625144
Gomel,Belarus,627907
Vitebsk,Belarus,620127
Grodnenskaya,Belarus,627904
Brest,Belarus,629634
Mogilev,Belarus,625665
Minsk City,Belarus,625144
Cayo,Belize,3581194
Orange Walk,Belize,3581514
Belize,Belize,3582678
British Columbia,Canada,6173331
Alberta,Canada,5946768
Ontario,Canada,6167865
Quebec,Canada,6325494
Manitoba,Canada,6183235
Prince Edward Island,Canada,6113358
Newfoundland and Labrador,Canada,6354959
Nova Scotia,Canada,6091530
New Brunswick,Canada,5957776
Saskatchewan,Canada,6141242
Yukon,Canada,6185811
Northwest Territories,Canada,6091069
Eastern Province,Democratic Republic of the Congo,209228
South Kivu,Democratic Republic of the Congo,205413
Kasaï-Occidental,Democratic Republic of the Congo,209228
Nord Kivu,Democratic Republic of the Congo,206938
Kasaï-Oriental,Democratic Republic of the Congo,209228
Équateur,Democratic Republic of the Congo,216661
Katanga,Democratic Republic of the Congo,11288213
Maniema,Democratic Republic of the Congo,209610
Bas-Congo,Democratic Republic of the Congo,2317277
Bandundu,Democratic Republic of the Congo,2317396
Kinshasa,Democratic Republic of the Congo,2314302
Basse-Kotto,Central African Republic,240396
Ouaka,Central African Republic,236887
Haute-Kotto,Central African Republic,238640
Mbomou,Central African Republic,237556
Kémo,Central African Republic,2383119
Ouham-Pendé,Central African Republic,2383650
Sangha-Mbaéré,Central African Republic,2383204
Lobaye,Central African Republic,2384770
Nana-Grébizi,Central African Republic,2386012
Ombella-Mpoko,Central African Republic,2388873
Mambéré-Kadéï,Central African Republic,2389086
Nana-Mambéré,Central African Republic,2384205
Ouham,Central African Republic,2387546
Bangui,Central African Republic,2389853
Lékoumou,Republic of the Congo,2258534
Pointe-Noire,Republic of the Congo,2255414
Cuvette,Republic of the Congo,2255542
Sangha,Republic of the Congo,2255329
Niari,Republic of the Congo,2258261
Bouenza,Republic of the Congo,2259383
Likouala,Republic of the Congo,2258431
Plateaux,Republic of the Congo,2255422
Brazzaville,Republic of the Congo,2260535
Zurich,Switzerland,2657896
Zug,Switzerland,2657908
Vaud,Switzerland,2659994
Saint Gallen,Switzerland,2658822
Aargau,Switzerland,2661876
Geneva,Switzerland,2660646
Bern,Switzerland,2661552
Valais,Switzerland,2658205
Schaffhausen,Switzerland,2658761
Solothurn,Switzerland,2658564
Neuchâtel,Switzerland,2659496
Basel-Landschaft,Switzerland,2661603
Lucerne,Switzerland,2659811
Ticino,Switzerland,2659836
Thurgau,Switzerland,2658372
Appenzell Ausserrhoden,Switzerland,2661739
Fribourg,Switzerland,2660717
Grisons,Switzerland,2660522
Basel-City,Switzerland,2661604
Marahoué,Ivory Coast,2290486
Lacs,Ivory Coast,11153056
Haut-Sassandra,Ivory Coast,11153166
Bafing,Ivory Coast,2597334
Savanes,Ivory Coast,11153060
Lagunes,Ivory Coast,11153057
Zanzan,Ivory Coast,11153063
Bas-Sassandra,Ivory Coast,11153052
Vallée du Bandama,Ivory Coast,2290956
Fromager,Ivory Coast,2597330
Denguélé,Ivory Coast,11153054
Worodougou,Ivory Coast,2597327
Dix-Huit Montagnes,Ivory Coast,2597323
Sud-Bandama,Ivory Coast,2597329
Sud-Comoé,Ivory Coast,2597317
Nʼzi-Comoé,Ivory Coast,2597331
Moyen-Comoé,Ivory Coast,2597322
Agnéby,Ivory Coast,2597318
Valparaíso,Chile,3868626
Araucanía,Chile,3899463
Atacama,Chile,3899191
Los Ríos,Chile,6693563
Biobío,Chile,3898380
Antofagasta,Chile,3899539
Maule,Chile,3880306
Santiago Metropolitan,Chile,3871336
O'Higgins,Chile,3883281
Magallanes,Chile,4036650
Los Lagos,Chile,3881974
Aisén,Chile,3900336
Coquimbo,Chile,3893623
Tarapacá,Chile,3887127
Arica y Parinacota,Chile,3899361
Centre,Cameroon,2220957
Far North,Cameroon,2228373
North-West Province,Cameroon,2234974
West,Cameroon,2233386
South-West Province,Cameroon,2233386
Adamaoua,Cameroon,2236015
North Province,Cameroon,2231320
South Province,Cameroon,2233386
Littoral,Cameroon,2232593
East,Cameroon,2231835
Tibet Autonomous Region,China,1279685
Gansu Sheng,China,1810676
Xinjiang Uygur Zizhiqu,China,1529047
Guizhou Sheng,China,1809445
Shandong Sheng,China,1796328
Sichuan,China,1794299
Hunan,China,1806691
Henan Sheng,China,1808520
Shanghai Shi,China,1796236
Zhejiang Sheng,China,1784764
Liaoning,China,2036115
Jiangsu,China,1806260
Yunnan,China,1785694
Hubei,China,1806949
Guangdong,China,1809935
Hebei,China,1808773
Fujian,China,1811017
Shaanxi,China,1796480
Shanxi Sheng,China,1795912
Guangxi Zhuangzu Zizhiqu,China,1809867
Chongqing Shi,China,1814906
Anhui Sheng,China,1818058
Ningxia Huizu Zizhiqu,China,1799355
Jiangxi Sheng,China,1806222
Tianjin Shi,China,1792947
Hainan,China,1809055
Qinghai Sheng,China,1280239
Inner Mongolia,China,2035607
Beijing,China,1816670
Jilin Sheng,China,2036502
Heilongjiang Sheng,China,2036965
Cundinamarca,Colombia,3685413
Valle del Cauca,Colombia,3687925
Antioquia,Colombia,3689815
Casanare,Colombia,3687173
Caldas,Colombia,3687951
Meta,Colombia,3674810
Norte de Santander,Colombia,3685533
La Guajira,Colombia,3677855
Cesar,Colombia,3686880
Bolívar,Colombia,3688650
Nariño,Colombia,3674021
Boyacá,Colombia,3688536
Sucre,Colombia,3667725
Córdoba,Colombia,3685889
Arauca,Colombia,3689718
Atlántico,Colombia,3689147
Santander,Colombia,3668578
Risaralda,Colombia,3670698
Cauca,Colombia,3687029
Magdalena,Colombia,3675686
"Archipiélago de San Andrés, Providencia y Santa Catalina",Colombia,3670205
Quindío,Colombia,3671087
Chocó,Colombia,3686431
Putumayo,Colombia,3671178
Huila,Colombia,3680692
Tolima,Colombia,3666951
Amazonas,Colombia,3689982
Caquetá,Colombia,3687479
Bogota D.C.,Colombia,3688689
Guaviare,Colombia,3681344
Cartago,Costa Rica,3624370
San José,Costa Rica,3621849
Limón,Costa Rica,3622247
Alajuela,Costa Rica,3624955
Heredia,Costa Rica,3621911
Puntarenas,Costa Rica,3622228
Guanacaste,Costa Rica,3623582
Granma,Cuba,3558052
Sancti Spíritus,Cuba,3540667
Pinar del Río,Cuba,3544091
Camagüey,Cuba,3566067
Ciego de Ávila,Cuba,3564178
Matanzas,Cuba,3547398
Holguín,Cuba,3556969
Villa Clara,Cuba,3537906
La Habana,Cuba,3553478
Santiago de Cuba,Cuba,3536729
Mayabeque,Cuba,7668827
Artemisa,Cuba,3568312
Cienfuegos,Cuba,3564124
Guantánamo,Cuba,3557689
Las Tunas,Cuba,3550598
Isla de la Juventud,Cuba,3556608
Sal,Cape Verde,3374218
Praia,Cape Verde,3374333
São Vicente,Cape Verde,3374462
Santa Catarina do Fogo,Cape Verde,3374707
Ammochostos,Cyprus,146617
Pafos,Cyprus,146214
Lefkosia,Cyprus,146268
Limassol,Cyprus,146384
Larnaka,Cyprus,146400
Keryneia,Cyprus,146412
Královéhradecký,Czech Republic,3339540
South Moravian,Czech Republic,3078610
Zlín,Czech Republic,3061370
Vysočina,Czech Republic,3339538
Ústecký,Czech Republic,3339577
Pardubický,Czech Republic,3339574
Moravskoslezský,Czech Republic,3068799
Jihočeský,Czech Republic,3077916
Olomoucký,Czech Republic,3339542
Karlovarský,Czech Republic,3339539
Central Bohemia,Czech Republic,3339576
Praha,Czech Republic,3067696
Plzeňský,Czech Republic,3339575
Liberecký,Czech Republic,3339541
Saxony,Germany,2842566
Rheinland-Pfalz,Germany,2874225
North Rhine-Westphalia,Germany,2928810
Brandenburg,Germany,2945356
Bavaria,Germany,2867714
Saxony-Anhalt,Germany,2911522
Berlin,Germany,2950159
Lower Saxony,Germany,2862926
Hesse,Germany,2905330
Mecklenburg-Vorpommern,Germany,2872567
Hamburg,Germany,2911298
Baden-Württemberg,Germany,2953504
Thuringia,Germany,2822542
Schleswig-Holstein,Germany,2838632
Saarland,Germany,2842635
Bremen,Germany,2944388
Tadjourah,Djibouti,220782
Obock,Djibouti,221527
Djibouti,Djibouti,223817
Ali Sabieh,Djibouti,225284
Central Jutland,Denmark,2624652
South Denmark,Denmark,2615876
Capital Region,Denmark,2618425
Zealand,Denmark,2613979
North Denmark,Denmark,2624886
Saint George,Dominica,3575635
Nacional,Dominican Republic,3492908
Santiago,Dominican Republic,3492914
San Cristóbal,Dominican Republic,3511540
El Seíbo,Dominican Republic,3506189
Barahona,Dominican Republic,3492985
San Pedro de Macorís,Dominican Republic,3493032
San Juan,Dominican Republic,3493091
San José de Ocoa,Dominican Republic,6201372
Duarte,Dominican Republic,3508718
Monte Cristi,Dominican Republic,3496200
Puerto Plata,Dominican Republic,3493175
La Altagracia,Dominican Republic,3503706
Hermanas Mirabal,Dominican Republic,3493282
Santiago Rodríguez,Dominican Republic,3492912
Monte Plata,Dominican Republic,3496132
Baoruco,Dominican Republic,3512050
María Trinidad Sánchez,Dominican Republic,3496772
Espaillat,Dominican Republic,3505867
Valverde,Dominican Republic,3492112
La Romana,Dominican Republic,3500957
La Vega,Dominican Republic,3509382
Hato Mayor,Dominican Republic,3504766
Dajabón,Dominican Republic,3508951
Sánchez Ramírez,Dominican Republic,3493192
Monseñor Nouel,Dominican Republic,3496274
Santo Domingo,Dominican Republic,3492908
Peravia,Dominican Republic,3495015
Azua,Dominican Republic,3512208
Boumerdes,Algeria,2474141
Biskra,Algeria,2503826
Tipaza,Algeria,2476028
Relizane,Algeria,2483668
Ouargla,Algeria,2485801
Tlemcen,Algeria,2475687
Tizi Ouzou,Algeria,2475744
Tissemsilt,Algeria,2475860
Tindouf,Algeria,2476302
Adrar,Algeria,2508807
Bejaïa,Algeria,2505329
Tiaret,Algeria,2476897
Aïn Defla,Algeria,2508228
Mila,Algeria,2487449
Tébessa,Algeria,2477461
Batna,Algeria,2505572
Tamanghasset,Algeria,2478216
Skikda,Algeria,2479536
Bouira,Algeria,2502951
Blida,Algeria,2503769
Souk Ahras,Algeria,2479215
Mascara,Algeria,2490098
Oran,Algeria,2485926
Sidi Bel Abbès,Algeria,2481007
Chlef,Algeria,2498611
Mʼsila,Algeria,2486682
Sétif,Algeria,2481700
Saïda,Algeria,2482572
Alger,Algeria,2507480
El Oued,Algeria,2497406
Bordj Bou Arréridj,Algeria,2503701
Oum el Bouaghi,Algeria,2484620
Mostaganem,Algeria,2487134
Ghardaïa,Algeria,2496045
Djelfa,Algeria,2500017
Médéa,Algeria,2488835
Laghouat,Algeria,2491191
Khenchela,Algeria,2491889
Jijel,Algeria,2492913
Guelma,Algeria,2495662
Aïn Temouchent,Algeria,2507901
Constantine,Algeria,2501152
El Tarf,Algeria,2497322
Annaba,Algeria,2506999
El Bayadh,Algeria,2498541
Béchar,Algeria,2505530
Naama النعامة,Algeria,2486512
Zamora-Chinchipe,Ecuador,3649953
Guayas,Ecuador,3657505
Los Ríos,Ecuador,3658666
Carchi,Ecuador,3659718
Napo,Ecuador,3653890
Manabí,Ecuador,3654410
Santo Domingo de los Tsáchilas,Ecuador,3651297
El Oro,Ecuador,3654533
Santa Elena,Ecuador,3651438
Esmeraldas,Ecuador,3657990
Chimborazo,Ecuador,3659238
Pichincha,Ecuador,3652462
Pastaza,Ecuador,3653392
Cotopaxi,Ecuador,3658769
Orellana,Ecuador,3830306
Tungurahua,Ecuador,3660689
Imbabura,Ecuador,3655635
Morona-Santiago,Ecuador,3654005
Loja,Ecuador,3654667
Cañar,Ecuador,3659849
Sucumbios,Ecuador,3830305
Bolívar,Ecuador,3660130
Azuay,Ecuador,3658666
Viljandimaa,Estonia,587590
Tartu,Estonia,588335
Harjumaa,Estonia,588409
Ida-Virumaa,Estonia,590031
Lääne-Virumaa,Estonia,589165
Pärnumaa,Estonia,589580
Muḩāfaz̧at al Gharbīyah,Egypt,360829
Muḩāfaz̧at al Qalyūbīyah,Egypt,360621
Muḩāfaz̧at al Fayyūm,Egypt,361320
Muḩāfaz̧at ad Daqahlīyah,Egypt,360761
Muḩāfaz̧at al Minūfīyah,Egypt,360689
Sūhāj,Egypt,347794
Muḩāfaz̧at Banī Suwayf,Egypt,359173
Kafr ash Shaykh,Egypt,354500
Al Minyā,Egypt,360686
Al Buḩayrah,Egypt,361370
Red Sea,Egypt,361468
Qinā,Egypt,350550
Eastern Province,Egypt,358840
Muḩāfaz̧at Maţrūḩ,Egypt,352603
Asyūţ,Egypt,359783
Al Jīzah,Egypt,360995
Aswān,Egypt,359792
Cairo Governorate,Egypt,360630
Dumyāţ,Egypt,358044
Muḩāfaz̧at Būr Sa‘īd,Egypt,358619
Al Ismā‘īlīyah,Egypt,361055
As Suways,Egypt,359796
Luxor,Egypt,360502
Muḩāfaz̧at al Wādī al Jadīd,Egypt,360483
Alexandria,Egypt,361058
Shamāl Sīnāʼ,Egypt,349401
Oued Ed-Dahab-Lagouira,Western Sahara,2463447
Northern Red Sea Region,Eritrea,330546
Ānseba,Eritrea,333287
Gash Barka,Eritrea,448500
Maʼākel,Eritrea,343300
Debubawī Kʼeyih Bahrī,Eritrea,343386
Debub,Eritrea,6660357
Andalusia,Spain,2510911
Extremadura,Spain,2593112
Murcia,Spain,2513416
Valencia,Spain,2509954
Castille-La Mancha,Spain,2510409
Canary Islands,Spain,2520308
Balearic Islands,Spain,2512989
Melilla,Spain,2513947
Basque Country,Spain,3104499
Aragon,Spain,3336899
Castille and León,Spain,3106672
Galicia,Spain,3105976
Madrid,Spain,3117735
Catalonia,Spain,3128760
Navarre,Spain,3114472
Cantabria,Spain,3109718
Asturias,Spain,3129135
La Rioja,Spain,3118150
Ceuta,Spain,6362987
Oromiya,Ethiopia,330186
"Southern Nations, Nationalities, and People's Region",Ethiopia,444188
Amhara,Ethiopia,444180
Tigray,Ethiopia,444187
Somali,Ethiopia,444186
Harari,Ethiopia,444184
Gambela,Ethiopia,444183
Āfar,Ethiopia,444179
Dire Dawa,Ethiopia,338832
Bīnshangul Gumuz,Ethiopia,444181
Ādīs Ābeba,Ethiopia,344979
Pirkanmaa,Finland,830704
Uusimaa,Finland,658225
Northern Savo,Finland,650224
Ostrobothnia,Finland,643492
Southwest Finland,Finland,None
Lapland,Finland,830603
Southern Ostrobothnia,Finland,828988
Southern Savonia,Finland,830695
Häme,Finland,830705
Satakunta,Finland,640999
Northern Ostrobothnia,Finland,643492
Central Finland,Finland,830685
South Karelia,Finland,830699
Päijänne Tavastia,Finland,649360
Kymenlaakso,Finland,830703
Central Ostrobothnia,Finland,830675
Kainuu,Finland,830664
North Karelia,Finland,655808
Central,Fiji,2198148
Western,Fiji,2202064
Northern,Fiji,2204582
Pohnpei,Micronesia,2081550
Streymoy,Faroe Islands,2612226
Île-de-France,France,2988507
Alsace-Champagne-Ardenne-Lorraine,France,3027258
Nord-Pas-de-Calais-Picardie,France,11071624
Auvergne-Rhône-Alpes,France,11071625
Provence-Alpes-Côte d'Azur,France,2990440
Brittany,France,3030300
Aquitaine-Limousin-Poitou-Charentes,France,2986493
Centre,France,3027939
Bourgogne-Franche-Comté,France,11071619
Pays de la Loire,France,2990969
Normandy,France,11071621
Languedoc-Roussillon-Midi-Pyrénées,France,11071623
Corsica,France,3023517
Nyanga,Gabon,2397141
Ogooué-Maritime,Gabon,2396518
Woleu-Ntem,Gabon,2396646
Ngounié,Gabon,2397466
Haut-Ogooué,Gabon,2398269
Estuaire,Gabon,2399697
Moyen-Ogooué,Gabon,2399888
Ogooué-Lolo,Gabon,2399959
England,United Kingdom,2648147
Wales,United Kingdom,2634895
Scotland,United Kingdom,2638360
Northern Ireland,United Kingdom,2635167
Saint George,Grenada,3579925
Samegrelo and Zemo Svaneti,Georgia,610824
Imereti,Georgia,613607
Shida Kartli,Georgia,614455
Abkhazia,Georgia,611847
Kakheti,Georgia,865537
T'bilisi,Georgia,611717
Kvemo Kartli,Georgia,612287
Guria,Georgia,614352
Ajaria,Georgia,615532
Samtskhe-Javakheti,Georgia,865544
Guyane,French Guiana,3381670
St Peter Port,Guernsey,3042287
Northern,Ghana,2294877
Central,Ghana,2302357
Brong-Ahafo,Ghana,2302547
Upper West,Ghana,2294286
Greater Accra,Ghana,2306104
Western,Ghana,2300660
Ashanti,Ghana,2298890
Eastern,Ghana,911148
Upper East,Ghana,2294291
Volta,Ghana,2294234
Sermersooq,Greenland,3421193
Western,Gambia,2413451
North Bank,Gambia,2412749
Banjul,Gambia,2413876
Labe,Guinea,2418362
Kindia,Guinea,2419533
Kankan,Guinea,2419992
Mamou,Guinea,8335090
Nzerekore,Guinea,2416969
Faranah,Guinea,8335086
Boke,Guinea,8335085
Conakry,Guinea,2422465
Guadeloupe,Guadeloupe,3579143
Kié-Ntem,Equatorial Guinea,2309332
Bioko Norte,Equatorial Guinea,2309527
Litoral,Equatorial Guinea,2310046
Attica,Greece,6692632
Thessaly,Greece,6697809
Peloponnese,Greece,6697807
Central Greece,Greece,6697800
Crete,Greece,6697802
Epirus,Greece,6697804
West Greece,Greece,255683
North Aegean,Greece,6697806
South Aegean,Greece,6697808
Central Macedonia,Greece,6697801
East Macedonia and Thrace,Greece,6697803
West Macedonia,Greece,6697811
Ionian Islands,Greece,6697805
Zacapa,Guatemala,3587586
Guatemala,Guatemala,3595528
Totonicapán,Guatemala,3588258
Chimaltenango,Guatemala,3598572
Sacatepéquez,Guatemala,3589885
Sololá,Guatemala,3588697
Escuintla,Guatemala,3595803
Quiché,Guatemala,3590964
San Marcos,Guatemala,3589801
Suchitepeque,Guatemala,3588668
Alta Verapaz,Guatemala,3599773
Petén,Guatemala,3591410
El Progreso,Guatemala,3596416
Baja Verapaz,Guatemala,3599602
Retalhuleu,Guatemala,3590857
Quetzaltenango,Guatemala,3590979
Izabal,Guatemala,3595259
Jutiapa,Guatemala,3595067
Jalapa,Guatemala,3595236
Huehuetenango,Guatemala,3595416
Chiquimula,Guatemala,3598464
Santa Rosa,Guatemala,3589172
Tamuning,Guam,7874631
Yigo,Guam,4038794
Hagatna,Guam,4044012
Dededo,Guam,4043909
Mangilao,Guam,7268049
Bissau,Guinea-Bissau,2374775
Bafatá,Guinea-Bissau,2375254
East Berbice-Corentyne,Guyana,3378840
Upper Demerara-Berbice,Guyana,3377408
Demerara-Mahaica,Guyana,3378644
Tsuen Wan,Hong Kong,1818209
Yuen Long,Hong Kong,1818223
Tuen Mun,Hong Kong,1818446
Tai Po,Hong Kong,1818673
Sha Tin,Hong Kong,1818920
Kowloon City,Hong Kong,1819609
Central and Western,Hong Kong,1819729
Cortés,Honduras,3613533
Yoro,Honduras,3610613
Colón,Honduras,3613358
Atlántida,Honduras,3608248
Francisco Morazán,Honduras,3600949
Comayagua,Honduras,3613321
Copán,Honduras,3613229
Santa Bárbara,Honduras,3601689
Valle,Honduras,3600456
La Paz,Honduras,3607251
Olancho,Honduras,3604249
El Paraíso,Honduras,3610942
Choluteca,Honduras,3613528
Zagrebačka,Croatia,3337531
Grad Zagreb,Croatia,3186886
Zadarska,Croatia,3337530
Vukovarsko-Srijemska,Croatia,3337529
Virovitičk-Podravska,Croatia,3337533
Varaždinska,Croatia,3337528
Splitsko-Dalmatinska,Croatia,3190261
Brodsko-Posavska,Croatia,3337512
Požeško-Slavonska,Croatia,3337523
Sisačko-Moslavačka,Croatia,3337526
Šibensko-Kniniska,Croatia,3202028
Primorsko-Goranska,Croatia,3191648
Istarska,Croatia,3337514
Osječko-Baranjska,Croatia,3193935
Koprivničko-Križevačka,Croatia,3337518
Karlovačka,Croatia,3337515
Dubrovačko-Neretvanska,Croatia,3337513
Međimurska,Croatia,3337521
Bjelovarsko-Bilogorska,Croatia,3337511
Artibonite,Haiti,3731053
Ouest,Haiti,3719028
Nord,Haiti,3728474
Nord-Ouest,Haiti,3718420
Nippes,Haiti,7115999
GrandʼAnse,Haiti,3723593
Sud-Est,Haiti,3723779
Centre,Haiti,3728069
Sud,Haiti,3721891
Jász-Nagykun-Szolnok,Hungary,715126
Borsod-Abaúj-Zemplén,Hungary,717582
Csongrád,Hungary,715429
Bekes,Hungary,722433
Hajdú-Bihar,Hungary,721472
Szabolcs-Szatmár-Bereg,Hungary,716935
Heves,Hungary,720002
Pest,Hungary,3046431
Zala,Hungary,3042613
Veszprém,Hungary,3042929
Komárom-Esztergom,Hungary,3049518
Vas,Hungary,3043047
Tolna,Hungary,3043845
Fejér,Hungary,3053028
Győr-Moson-Sopron,Hungary,3052009
Somogy,Hungary,3045226
Nógrád,Hungary,3047348
Baranya,Hungary,3046526
Bács-Kiskun,Hungary,3055744
Budapest,Hungary,3054643
North Sumatra,Indonesia,1214520
Aceh,Indonesia,1215502
Daerah Istimewa Yogyakarta,Indonesia,1621177
Central Java,Indonesia,1627896
East Java,Indonesia,1625822
West Java,Indonesia,1649378
South Sulawesi,Indonesia,9062340
East Nusa Tenggara,Indonesia,1633791
Bali,Indonesia,1650534
Maluku,Indonesia,1636627
North Sulawesi,Indonesia,1626229
Maluku Utara,Indonesia,1958070
Lampung,Indonesia,1624917
North Kalimantan,Indonesia,8604684
Riau Islands,Indonesia,1996551
Bangka–Belitung Islands,Indonesia,1632654
South Sumatra,Indonesia,1214520
Banten,Indonesia,8581443
West Kalimantan,Indonesia,1641900
Jambi,Indonesia,1642858
West Nusa Tenggara,Indonesia,1633792
West Papua,Indonesia,2082514
West Sumatra,Indonesia,1626197
Central Kalimantan,Indonesia,1641898
East Kalimantan,Indonesia,1641897
Central Sulawesi,Indonesia,1626231
Sulawesi Barat,Indonesia,1996550
Riau,Indonesia,1996551
Papua,Indonesia,2082514
South Kalimantan,Indonesia,1648148
Sulawesi Tenggara,Indonesia,1626230
Jakarta Raya,Indonesia,1642911
Gorontalo,Indonesia,1643837
Bengkulu,Indonesia,1649150
Leinster,Ireland,2964574
Munster,Ireland,2962943
Connaught,Ireland,7521313
Ulster,Ireland,7521316
Jerusalem,Israel,7498240
Northern District,Israel,294257
Central District,Israel,294904
Tel Aviv,Israel,293397
Haifa,Israel,294801
Southern District,Israel,295629
Douglas,Isle of Man,3042237
Kashmir,India,1269320
Tamil Nadu,India,1264527
Nagaland,India,1262271
Uttar Pradesh,India,1253626
Telangana,India,1269843
Maharashtra,India,8659036
Karnataka,India,1267701
Andhra Pradesh,India,1278629
Haryana,India,1270260
Rajasthan,India,1258899
Bihar,India,1275715
Madhya Pradesh,India,1264542
Gujarat,India,1279233
Kerala,India,1267254
Goa,India,1271157
Uttarakhand,India,1444366
Himachal Pradesh,India,1270101
Chhattisgarh,India,1444364
Assam,India,1278253
Tripura,India,1254169
Meghalaya,India,1263207
West Bengal,India,1275004
Odisha,India,1261029
Manipur,India,1263706
Punjab,India,1259224
Jharkhand,India,1444365
Dadra and Nagar Haveli,India,1273726
Mizoram,India,1262963
Andaman and Nicobar Islands,India,1259385
Pondicherry,India,1259425
Arunachal Pradesh,India,1278341
NCT,India,9972750
Sikkim,India,1256312
Daman and Diu,India,1273618
Chandigarh,India,1274746
Dahūk,Iraq,96994
Basra Governorate,Iraq,99532
Salah ad Din Governorate,Iraq,91695
Nīnawá,Iraq,99071
Bābil,Iraq,98227
Arbīl,Iraq,95446
Anbar,Iraq,99592
Diyālá,Iraq,96965
At Taʼmīm,Iraq,98410
Karbalāʼ,Iraq,94823
As Sulaymānīyah,Iraq,98463
Mayorality of Baghdad,Iraq,98182
Wāsiţ,Iraq,89693
Al Muthanná,Iraq,99032
Al Qādisīyah,Iraq,99022
Dhi Qar,Iraq,97019
An Najaf,Iraq,98860
Maysan,Iraq,93540
Hamadān,Iran,10630176
Kermānshāh,Iran,128226
Lorestān,Iran,125605
Semnān,Iran,116402
Tehrān,Iran,112931
Zanjan,Iran,111453
Kohgīlūyeh va Būyer Aḩmad,Iran,66093
Golestān,Iran,443792
Kerman,Iran,128234
Yazd,Iran,111821
Razavi Khorasan,Iran,124665
Māzandarān,Iran,124544
Gīlān,Iran,133349
Qazvīn,Iran,119505
Āz̄ārbāyjān-e Gharbī,Iran,121801
East Azerbaijan,Iran,113646
Khuzestan,Iran,127082
Khorāsān-e Shomālī,Iran,6201376
Fars,Iran,115019
Chahār Maḩāll va Bakhtīārī,Iran,139677
Isfahan,Iran,418863
Markazi,Iran,124763
Kordestān,Iran,126584
Qom,Iran,119208
Hormozgan,Iran,131222
Khorāsān-e Jonūbī,Iran,6201374
Ardabīl,Iran,143083
Alborz,Iran,128747
Īlām,Iran,130802
Bushehr,Iran,139817
Sistan and Baluchestan,Iran,1159456
Northeast,Iceland,2632922
Capital Region,Iceland,3415212
Sicily,Italy,2523118
Calabria,Italy,2523630
Sardinia,Italy,2523227
Apulia,Italy,3182351
Emilia-Romagna,Italy,3169068
Lombardy,Italy,3173435
Veneto,Italy,3164604
Latium,Italy,3169070
Campania,Italy,3172394
Tuscany,Italy,3176959
Piedmont,Italy,3165524
Liguria,Italy,3176219
Abruzzo,Italy,3183560
Friuli Venezia Giulia,Italy,3176525
Trentino-Alto Adige,Italy,3165244
The Marches,Italy,3174004
Umbria,Italy,3165048
Molise,Italy,3173222
Basilicate,Italy,3170027
Aosta Valley,Italy,3182997
St Helier,Jersey,3042091
Saint Catherine,Jamaica,3488981
Westmoreland,Jamaica,3488081
Saint Andrew,Jamaica,3489297
Saint James,Jamaica,3488700
Clarendon,Jamaica,3490952
Manchester,Jamaica,3489586
Kingston,Jamaica,3489854
Amman,Jordan,250441
Madaba,Jordan,248370
Ma’an,Jordan,248380
Irbid,Jordan,248946
Jerash,Jordan,443121
Karak,Jordan,250625
Zarqa,Jordan,250090
Tafielah,Jordan,250199
Balqa,Jordan,250258
Ajlun,Jordan,250799
Mafraq,Jordan,250583
Aqaba,Jordan,250774
Wakayama,Japan,1926004
Kanagawa,Japan,1848354
Hyōgo,Japan,1859171
Yamagata,Japan,2110556
Gifu,Japan,1863641
Fukuoka,Japan,1863967
Ibaraki,Japan,2111901
Saitama,Japan,6940394
Gunma,Japan,1857843
Niigata,Japan,1855431
Tottori,Japan,1849892
Mie,Japan,1857352
Shiga Prefecture,Japan,1853574
Kyoto,Japan,1857910
Kumamoto,Japan,1857892
Toyama,Japan,1849876
Shimane,Japan,1852442
Ōsaka,Japan,1853909
Yamaguchi,Japan,1848689
Shizuoka,Japan,1851717
Tochigi,Japan,1849053
Tokushima,Japan,1850158
Oita,Japan,1854487
Saga Prefecture,Japan,1853303
Tokyo,Japan,1850147
Yamanashi,Japan,1859100
Nagano,Japan,1856215
Okayama,Japan,1854383
Aichi,Japan,1856057
Ishikawa,Japan,1861387
Fukui,Japan,1863985
Miyazaki,Japan,1856717
Kagawa,Japan,1851100
Okinawa,Japan,1854345
Nagasaki,Japan,1856177
Nara,Japan,1855612
Akita,Japan,2113126
Chiba,Japan,2113015
Kagoshima,Japan,1860827
Hiroshima,Japan,1862415
Kochi,Japan,1859146
Ehime,Japan,1864226
Fukushima,Japan,2112923
Miyagi,Japan,2111149
Iwate,Japan,2111834
Hokkaido,Japan,11257417
Aomori,Japan,2130658
Bungoma,Kenya,200067
Wajir,Kenya,178440
Taita Taveta,Kenya,7667652
Nairobi Area,Kenya,184745
Nakuru,Kenya,184622
Nyeri,Kenya,182701
Laikipia,Kenya,189794
Narok,Kenya,7668904
Kakamega,Kenya,195272
Kisumu,Kenya,191245
Marsabit,Kenya,187583
Mombasa,Kenya,186301
Migori,Kenya,7667678
Meru,Kenya,186824
Vihiga,Kenya,7667638
Samburu,Kenya,180782
Mandera,Kenya,187895
Kilifi,Kenya,192064
Makueni,Kenya,7667645
Machakos,Kenya,7667644
Busia,Kenya,199987
Turkana,Kenya,178914
Lamu,Kenya,189741
Kitui,Kenya,191037
Trans Nzoia,Kenya,179068
Kisii,Kenya,191298
Kiambu,Kenya,192709
Kirinyaga,Kenya,191421
Kericho,Kenya,192900
Murang'A,Kenya,185578
West Pokot,Kenya,178145
Baringo,Kenya,200573
Isiolo,Kenya,196228
Homa Bay,Kenya,7667665
Garissa,Kenya,197745
Embu,Kenya,198476
Uasin Gishu,Kenya,198629
Siaya,Kenya,180320
Nyandarua,Kenya,7603036
Batken,Kyrgyzstan,1463580
Ysyk-Köl,Kyrgyzstan,1528121
Chüy,Kyrgyzstan,1527199
Jalal-Abad,Kyrgyzstan,1528249
Talas,Kyrgyzstan,1527299
Osh,Kyrgyzstan,1527534
Naryn,Kyrgyzstan,1527592
Bishkek,Kyrgyzstan,1528675
Osh City,Kyrgyzstan,10300944
Phnom Penh,Cambodia,1821306
Kandal,Cambodia,1821935
Takeo,Cambodia,1821940
Svay Rieng,Cambodia,1821992
Stung Treng,Cambodia,1822028
Banteay Meanchey,Cambodia,1830194
Siem Reap,Cambodia,1822214
Prey Veng,Cambodia,1822609
Pursat,Cambodia,1822768
Ŏtâr Méanchey,Cambodia,1822210
Preah Vihear,Cambodia,1822676
Pailin,Cambodia,1830206
Ratanakiri,Cambodia,1822449
Koh Kong,Cambodia,1831037
Kratie,Cambodia,1830563
Kampot,Cambodia,1831111
Kampong Thom,Cambodia,1831124
Kampong Speu,Cambodia,1831132
Preah Sihanouk,Cambodia,1831142
Kampong Chhnang,Cambodia,1831167
Kampong Cham,Cambodia,1831173
Battambang,Cambodia,1831797
Gilbert Islands,Kiribati,4030945
Anjouan,Comoros,921664
Grande Comore,Comoros,921772
Saint George Basseterre,Saint Kitts and Nevis,3575551
Hwanghae-namdo,North Korea,1876884
Kangwŏn-do,North Korea,1866923
Pyongyang,North Korea,1871859
Hwanghae-bukto,North Korea,1876888
P'yŏngan-namdo,North Korea,1873757
Hamgyŏng-namdo,North Korea,1877449
P'yŏngan-bukto,North Korea,2040893
Rason,North Korea,2054927
Hamgyŏng-bukto,North Korea,2044757
Yanggang-do,North Korea,2039332
Chagang-do,North Korea,2045265
Gyeongsangbuk-do,South Korea,1841597
Gangwon-do,South Korea,1843125
Jeollanam-do,South Korea,1845788
Chungcheongbuk-do,South Korea,1845106
Gyeonggi-do,South Korea,1897000
Chungcheongnam-do,South Korea,1845105
Gyeongsangnam-do,South Korea,1902028
Jeollabuk-do,South Korea,1845789
Ulsan,South Korea,1833747
Daejeon,South Korea,1835235
Daegu,South Korea,1835329
Seoul,South Korea,1835848
Busan,South Korea,1838524
Gwangju,South Korea,1841811
Incheon,South Korea,1843564
Jeju-do,South Korea,1846266
Al Farwaniyah,Kuwait,285815
Muḩāfaz̧at Ḩawallī,Kuwait,285629
Al Aḩmadī,Kuwait,285839
Al Asimah,Kuwait,285787
Al Jahrāʼ,Kuwait,285798
Mubārak al Kabīr,Kuwait,412800
George Town,Cayman Islands,3580661
Mangghystaū,Kazakhstan,608879
Aqtöbe,Kazakhstan,610611
Atyraū,Kazakhstan,610529
Batys Qazaqstan,Kazakhstan,607847
Qaraghandy,Kazakhstan,609655
East Kazakhstan,Kazakhstan,1517381
Qyzylorda,Kazakhstan,1521406
Qostanay,Kazakhstan,1519928
Zhambyl,Kazakhstan,1516905
Ongtüstik Qazaqstan,Kazakhstan,1485613
Almaty Oblysy,Kazakhstan,1537162
Soltüstik Qazaqstan,Kazakhstan,1519367
Pavlodar,Kazakhstan,1520240
Aqmola,Kazakhstan,1518003
Bayqongyr Qalasy,Kazakhstan,1538316
Astana Qalasy,Kazakhstan,None
Almaty Qalasy,Kazakhstan,1537282
Vientiane,Laos,1651944
Houaphan,Laos,1652203
Savannahkhét,Laos,1653316
Champasak,Laos,1654379
Oudômxai,Laos,1654491
Vientiane Province,Laos,1652238
Xiangkhoang,Laos,1655123
Bolikhamsai Province,Laos,1904617
Khammouan,Laos,1655199
Louangphabang,Laos,1655559
Bokeo Province,Laos,1904616
Béqaa,Lebanon,280282
Liban-Nord,Lebanon,266826
Liban-Sud,Lebanon,268064
Beyrouth,Lebanon,276781
Mont-Liban,Lebanon,273607
Nabatîyé,Lebanon,278913
Baalbek-Hermel,Lebanon,277130
Castries Quarter,Saint Lucia,3576812
Vaduz,Liechtenstein,3042030
Western,Sri Lanka,1233369
Southern,Sri Lanka,1227603
Northern Province,Sri Lanka,1242833
Eastern Province,Sri Lanka,1242110
Sabaragamuwa,Sri Lanka,1228435
North Western,Sri Lanka,1232860
Central,Sri Lanka,1241622
Uva,Sri Lanka,1225265
North Central,Sri Lanka,1232870
Grand Gedeh,Liberia,2276622
Nimba,Liberia,2274688
Lofa,Liberia,2275344
Montserrado,Liberia,2278682
Margibi,Liberia,2276086
Maryland,Liberia,2276492
Sinoe,Liberia,2273898
Bong,Liberia,2277060
Grand Bassa,Liberia,2278158
Quthing,Lesotho,932183
Qachaʼs Nek,Lesotho,932218
Mohaleʼs Hoek,Lesotho,932438
Maseru,Lesotho,932505
Leribe,Lesotho,932698
Mafeteng,Lesotho,932614
Butha-Buthe,Lesotho,932886
Utenos apskritis,Lithuania,864484
Vilnius County,Lithuania,593116
Telšių apskritis,Lithuania,864483
Tauragės apskritis,Lithuania,864482
Klaipėdos apskritis,Lithuania,598098
Šiaulių apskritis,Lithuania,594739
Panevėžys,Lithuania,596128
Marijampolės apskritis,Lithuania,864479
Kauno apskritis,Lithuania,598316
Alytaus apskritis,Lithuania,601084
Luxembourg,Luxembourg,2960313
Valmieras Rajons,Latvia,454564
Ventspils,Latvia,454310
Liepāja,Latvia,457954
Tukuma Rajons,Latvia,454771
Salaspils,Latvia,455898
Riga,Latvia,456172
Rēzekne,Latvia,456202
Ogre,Latvia,457065
Jūrmala,Latvia,459201
Jelgava,Latvia,459279
Jēkabpils Municipality,Latvia,459283
Daugavpils municipality,Latvia,460413
Cēsu Rajons,Latvia,460569
Sha‘bīyat al Buţnān,Libya,7602688
Banghāzī,Libya,88319
Darnah,Libya,87205
Sha‘bīyat al Wāḩāt,Libya,7602692
Al Kufrah,Libya,88932
Al Marj,Libya,88903
Al Jabal al Akhḑar,Libya,443289
An Nuqāţ al Khams,Libya,2219701
Mişrātah,Libya,2214846
Sha‘bīyat al Jabal al Gharbī,Libya,7602689
Al Jufrah,Libya,2219944
Al Marqab,Libya,2210221
Tripoli,Libya,2210247
Surt,Libya,2210553
Az Zāwiyah,Libya,2218970
Sabhā,Libya,2212775
Sha‘bīyat Nālūt,Libya,2214432
Murzuq,Libya,2214602
Sha‘bīyat Ghāt,Libya,2217350
Ash Shāţiʼ,Libya,2219413
Sha‘bīyat Wādī al Ḩayāt,Libya,7602693
Oriental,Morocco,11281875
Souss-Massa-Drâa,Morocco,2597554
Doukkala-Abda,Morocco,2597549
Taza-Al Hoceima-Taounate,Morocco,2597557
Rabat-Salé-Zemmour-Zaër,Morocco,2538470
Tanger-Tétouan,Morocco,2530335
Guelmim-Es Smara,Morocco,2597551
Gharb-Chrarda-Beni Hssen,Morocco,2597550
Chaouia-Ouardigha,Morocco,2597548
Fès-Boulemane,Morocco,2548882
Grand Casablanca,Morocco,2553603
Meknès-Tafilalet,Morocco,2542710
Marrakech-Tensift-Al Haouz,Morocco,2542995
Tadla-Azilal,Morocco,2597555
Oued ed Dahab-Lagouira,Morocco,7627603
Raionul Edineţ,Moldova,617077
Ungheni,Moldova,617180
Stînga Nistrului,Moldova,617239
Strășeni,Moldova,617301
Sîngerei,Moldova,617913
Raionul Soroca,Moldova,617367
Orhei,Moldova,617638
Hînceşti,Moldova,858803
Căuşeni,Moldova,618119
Floreşti,Moldova,618331
Teleneşti,Moldova,617255
Drochia,Moldova,618369
Găgăuzia,Moldova,858895
Chişinău,Moldova,618426
Cahul,Moldova,618456
Bender,Moldova,618577
Bălţi,Moldova,618605
Podgorica,Montenegro,3193044
Pljevlja,Montenegro,3193161
Opština Nikšić,Montenegro,3194494
Herceg Novi,Montenegro,3199394
Cetinje,Montenegro,3202641
Budva,Montenegro,3203106
Bijelo Polje,Montenegro,3204176
Bar,Montenegro,3204509
Atsinanana,Madagascar,1053384
Atsimo-Atsinanana,Madagascar,7670908
Analanjirofo,Madagascar,7670848
Bongolava,Madagascar,7670853
Androy,Madagascar,1079048
Betsiboka,Madagascar,7670850
Atsimo-Andrefana,Madagascar,7670913
Anosy,Madagascar,7670910
Itasy,Madagascar,7670855
Vakinankaratra,Madagascar,1069166
Boeny,Madagascar,7670849
Sava,Madagascar,7670846
Vatovavy Fitovinany,Madagascar,7670906
Analamanga,Madagascar,7670856
Menabe,Madagascar,7670902
Alaotra Mangoro,Madagascar,7670851
Melaky,Madagascar,7670852
Upper Matsiatra,Madagascar,1064890
Ihorombe,Madagascar,7670907
Amoron'i Mania,Madagascar,7670904
Sofia,Madagascar,7670847
Diana,Madagascar,7670842
Majuro Atoll,Marshall Islands,2113779
Želino,Macedonia,863919
Vinica,Macedonia,863912
Veles,Macedonia,785058
Tetovo,Macedonia,785082
Tearce,Macedonia,863906
Studeničani,Macedonia,863903
Strumica,Macedonia,863902
Struga,Macedonia,785387
Štip,Macedonia,863900
Karpoš,Macedonia,785842
Saraj,Macedonia,863894
Resen,Macedonia,786339
Radoviš,Macedonia,863890
Prilep,Macedonia,786735
Ohrid,Macedonia,787487
Vrapčište,Macedonia,863914
Negotino,Macedonia,863881
Opstina Lipkovo,Macedonia,863875
Kumanovo,Macedonia,788886
Kriva Palanka,Macedonia,863869
Kočani,Macedonia,789403
Kičevo,Macedonia,863862
Kavadarci,Macedonia,863861
Bogovinje,Macedonia,863834
Gostivar,Macedonia,790295
Gevgelija,Macedonia,863854
Delčevo,Macedonia,863844
Debar,Macedonia,863843
Brvenica,Macedonia,863835
Bitola,Macedonia,792578
Šuto Orizari,Macedonia,863904
Butel,Macedonia,7056269
Čair,Macedonia,833262
Ilinden,Macedonia,863856
Kisela Voda,Macedonia,863675
Centar Župa,Macedonia,863841
Sikasso,Mali,2451185
Tombouctou,Mali,2449066
Ségou,Mali,2451478
Kayes,Mali,2455518
Mopti,Mali,2453348
Koulikoro,Mali,2454532
Gao,Mali,2457163
Bamako,Mali,2460596
Magway,Myanmar,1312604
Ayeyarwady,Myanmar,1321850
Mandalay,Myanmar,1311874
Yangon,Myanmar,1298824
Bago,Myanmar,1300466
Mon,Myanmar,1308465
Tanintharyi,Myanmar,1293118
Shan,Myanmar,1297099
Rakhine,Myanmar,1298852
Sagain,Myanmar,1298480
Kayin,Myanmar,1320233
Kachin,Myanmar,1321702
Kayah,Myanmar,1319539
Chin,Myanmar,1327132
Dzabkhan,Mongolia,1516012
Uvs,Mongolia,1515029
Bayan-Ölgiy,Mongolia,1515436
Hovd,Mongolia,1516048
Govĭ-Altay,Mongolia,1515917
Ulaanbaatar,Mongolia,2028462
Selenge,Mongolia,2029432
Hövsgöl,Mongolia,2030469
Middle Govĭ,Mongolia,2031740
Övörhangay,Mongolia,2030474
Orhon,Mongolia,2031405
Darhan Uul,Mongolia,2031964
Ömnögovĭ,Mongolia,2029669
East Gobi Aymag,Mongolia,2031798
Bulgan,Mongolia,2032199
Bayanhongor,Mongolia,2032533
Sühbaatar,Mongolia,2029155
Central Aimak,Mongolia,2028849
Macau,Macao,1821274
Saipan,Northern Mariana Islands,7828758
Martinique,Martinique,3570311
Tiris Zemmour,Mauritania,2375558
Trarza,Mauritania,2375742
Guidimaka,Mauritania,2376719
Nouakchott,Mauritania,2377450
Dakhlet Nouadhibou,Mauritania,2377457
Hodh ech Chargui,Mauritania,2377539
Assaba,Mauritania,2378538
Gorgol,Mauritania,2378736
Adrar,Mauritania,2381334
Brakna,Mauritania,2380635
Saint Anthony,Montserrat,3578203
Saint Peter,Montserrat,3578037
Ħaż-Żabbar,Malta,2562266
Il-Belt Valletta,Malta,8334638
Qormi,Malta,2562629
Il-Mosta,Malta,2562704
Birkirkara,Malta,2563191
Plaines Wilhems,Mauritius,933945
Pamplemousses,Mauritius,934212
Moka,Mauritius,934275
Port Louis,Mauritius,934154
Grand Port,Mauritius,934466
Rivière du Rempart,Mauritius,934488
Flacq,Mauritius,934631
Kaafu Atoll,Maldives,1282027
Northern Region,Malawi,925475
Southern Region,Malawi,931755
Central Region,Malawi,927967
Tamaulipas,Mexico,3516391
México,Mexico,3996063
Guerrero,Mexico,3527213
Hidalgo,Mexico,3527115
Puebla,Mexico,3521081
Morelos,Mexico,3529612
Mexico City,Mexico,3530597
Veracruz,Mexico,3514780
Tabasco,Mexico,3516458
Chiapas,Mexico,3531011
Yucatán,Mexico,3514211
Querétaro,Mexico,3991164
San Luis Potosí,Mexico,3985606
Oaxaca,Mexico,3522507
Tlaxcala,Mexico,3815415
Quintana Roo,Mexico,3520887
Nuevo León,Mexico,3522542
Campeche,Mexico,3531730
Sonora,Mexico,3982846
Sinaloa,Mexico,3983035
Jalisco,Mexico,4004156
Baja California,Mexico,4017700
Michoacán,Mexico,3995955
Zacatecas,Mexico,3979840
Guanajuato,Mexico,4005270
Coahuila,Mexico,4013674
Colima,Mexico,4013516
Nayarit,Mexico,3995012
Durango,Mexico,4011743
Baja California Sur,Mexico,4017698
Aguascalientes,Mexico,4019233
Chihuahua,Mexico,4014338
Kedah,Malaysia,1733048
Pahang,Malaysia,1733042
Johor,Malaysia,1732752
Selangor,Malaysia,1732905
Terengganu,Malaysia,1734705
Sabah,Malaysia,1733039
Labuan,Malaysia,1734240
Perak,Malaysia,1733041
Kelantan,Malaysia,1736376
Negeri Sembilan,Malaysia,1733043
Melaka,Malaysia,1733035
Penang,Malaysia,6301257
Kuala Lumpur,Malaysia,1735161
Sarawak,Malaysia,1735634
Perlis,Malaysia,1733040
Putrajaya,Malaysia,1996552
Gaza,Mozambique,1046058
Sofala,Mozambique,1052373
Tete,Mozambique,1026014
Maputo,Mozambique,1040652
Zambézia,Mozambique,1024312
Cabo Delgado,Mozambique,1051823
Nampula,Mozambique,1033356
Inhambane,Mozambique,1045110
Maputo City,Mozambique,1040652
Niassa,Mozambique,1030006
Manica,Mozambique,1049261
Zambezi,Namibia,1090052
Khomas,Namibia,3352136
Erongo,Namibia,3371199
Kavango East,Namibia,3353383
Hardap,Namibia,3371200
Otjozondjupa,Namibia,3371209
Oshana,Namibia,3371207
Karas,Namibia,3371201
Omaheke,Namibia,3371205
South Province,New Caledonia,2140066
Tahoua,Niger,2439376
Zinder,Niger,2437798
Tillabéri,Niger,2595293
Maradi,Niger,2441291
Niamey,Niger,2440485
Diffa,Niger,2445702
Dosso,Niger,2445488
Agadez,Niger,2448085
Kebbi,Nigeria,2597363
Niger,Nigeria,2440476
Kaduna,Nigeria,2335727
Adamawa,Nigeria,2565342
Bayelsa,Nigeria,2595344
Taraba,Nigeria,2597366
Kano,Nigeria,2335204
Delta,Nigeria,2565341
Nassarawa,Nigeria,2595348
Akwa Ibom,Nigeria,2350813
Edo,Nigeria,2565343
Abia,Nigeria,2565340
Cross River,Nigeria,2345891
Anambra,Nigeria,2349961
Sokoto,Nigeria,2322911
Zamfara,Nigeria,2595349
Benue,Nigeria,2347266
Oyo,Nigeria,2325190
Ogun,Nigeria,2327546
Yobe,Nigeria,2597367
Rivers,Nigeria,2324433
Gombe,Nigeria,2340451
Kwara,Nigeria,2332785
Plateau,Nigeria,2324828
Osun,Nigeria,2597365
Ondo,Nigeria,2326168
Imo,Nigeria,2337542
Kogi,Nigeria,2597364
Ekiti,Nigeria,2352379
Enugu,Nigeria,2343279
Borno,Nigeria,2346794
Katsina,Nigeria,2334802
Lagos,Nigeria,2332459
Abuja Federal Capital Territory,Nigeria,2352778
Jigawa,Nigeria,2565345
Bauchi,Nigeria,2347470
Ebonyi,Nigeria,2595345
Managua,Nicaragua,3617763
Madriz,Nicaragua,3617796
Chinandega,Nicaragua,3620381
Atlántico Norte (RAAN),Nicaragua,3830307
Carazo,Nicaragua,3620481
Rivas,Nicaragua,3617051
Matagalpa,Nicaragua,3617708
Atlántico Sur,Nicaragua,3830308
Nueva Segovia,Nicaragua,3617458
Granada,Nicaragua,3619136
León,Nicaragua,3618030
Masaya,Nicaragua,3617723
Chontales,Nicaragua,3620368
Jinotega,Nicaragua,3618929
Estelí,Nicaragua,3619194
Boaco,Nicaragua,3620673
Overijssel,Netherlands,2748838
South Holland,Netherlands,2747891
Gelderland,Netherlands,2755634
North Brabant,Netherlands,2756253
Utrecht,Netherlands,2745912
Flevoland,Netherlands,2759879
North Holland,Netherlands,2759794
Friesland,Netherlands,2755812
Groningen,Netherlands,2755251
Limburg,Netherlands,2751596
Zeeland,Netherlands,2744011
Drenthe,Netherlands,2756631
Sør-Trøndelag,Norway,3137400
Troms,Norway,3133897
Vestfold,Norway,3132015
Nord-Trøndelag,Norway,3144148
Rogaland,Norway,3141558
Telemark,Norway,3134723
Østfold,Norway,3143188
Oslo,Norway,3143244
Møre og Romsdal,Norway,3145495
Nordland,Norway,3144301
Oppland,Norway,3143487
Vest-Agder,Norway,3132064
Buskerud,Norway,3159665
Hedmark,Norway,3153403
Hordaland,Norway,3151864
Aust-Agder,Norway,3162354
Western Region,Nepal,1282898
Mid Western,Nepal,7289706
Far Western,Nepal,1283467
Eastern Region,Nepal,1283460
Central Region,Nepal,1283613
Yaren,Nauru,7626461
Wellington,New Zealand,2179537
Manawatu-Wanganui,New Zealand,2179671
Canterbury,New Zealand,2192362
Waikato,New Zealand,2180293
Auckland,New Zealand,2193733
Taranaki,New Zealand,2181872
Nelson,New Zealand,2186280
Hawke's Bay,New Zealand,2190146
Southland,New Zealand,2182501
Otago,New Zealand,2191562
Gisborne,New Zealand,2206854
Bay of Plenty,New Zealand,2208032
Northland,New Zealand,2185978
Marlborough,New Zealand,2187304
Ash Sharqiyah South Governorate,Oman,411738
Al Batinah North Governorate,Oman,286282
Muḩāfaz̧at ad Dākhilīyah,Oman,411735
Z̧ufār,Oman,286621
Muḩāfaz̧at Masqaţ,Oman,287286
Musandam,Oman,411741
Az̧ Z̧āhirah,Oman,287830
Ash Sharqiyah North Governorate,Oman,8394433
Al Batinah South Governorate,Oman,411736
Al Buraimi,Oman,289317
Panamá,Panama,3703430
Veraguas,Panama,3700159
Chiriquí,Panama,3711668
Colón,Panama,3712076
Herrera,Panama,3708710
Bocas del Toro,Panama,3713954
Coclé,Panama,3712162
Loreto,Peru,3696183
La Libertad,Peru,3691175
San Martín,Peru,3692385
Tumbes,Peru,3691148
Huanuco,Peru,3696417
Piura,Peru,3693528
Lambayeque,Peru,3698350
Ucayali,Peru,3691099
Amazonas,Peru,3699699
Cajamarca,Peru,3699088
Ancash,Peru,3698304
Puno,Peru,3931276
Junín,Peru,3939459
Madre de Dios,Peru,3935619
Tacna,Peru,3928128
Lima region,Peru,3936452
Cusco,Peru,3941584
Ica,Peru,3938527
Moquegua,Peru,3934607
Arequipa,Peru,3947322
Lima Province,Peru,3936456
Ayacucho,Peru,3947019
Huancavelica,Peru,3939470
Pasco,Peru,6668795
Callao,Peru,3946083
Apurímac,Peru,3947421
Îles du Vent,French Polynesia,4033779
East Sepik,Papua New Guinea,2097846
National Capital,Papua New Guinea,2088122
Northern Province,Papua New Guinea,2088163
Western Highlands,Papua New Guinea,2090409
Southern Highlands,Papua New Guinea,2086331
Madang,Papua New Guinea,2091996
Morobe,Papua New Guinea,2092740
East New Britain,Papua New Guinea,2093685
West New Britain,Papua New Guinea,2083546
Eastern Highlands,Papua New Guinea,2096742
Western Province,Papua New Guinea,2090409
Bougainville,Papua New Guinea,2089470
Zamboanga Peninsula,Philippines,7521308
Autonomous Region in Muslim Mindanao,Philippines,1723510
Bicol,Philippines,7521310
Ilocos,Philippines,7521301
Western Visayas,Philippines,1695623
Calabarzon,Philippines,7521303
Caraga,Philippines,7521299
Northern Mindanao,Philippines,1723510
Davao,Philippines,1715348
Cagayan Valley,Philippines,7521297
Central Visayas,Philippines,1717512
Central Luzon,Philippines,7521305
Metro Manila,Philippines,1701668
Eastern Visayas,Philippines,1717512
Soccsksargen,Philippines,7521298
Cordillera,Philippines,1728930
Mimaropa,Philippines,7521296
Sindh,Pakistan,1176734
Azad Kashmir,Pakistan,1169607
Balochistān,Pakistan,1183606
Khyber Pakhtunkhwa,Pakistan,1168873
Punjab,Pakistan,1167710
Islāmābād,Pakistan,1176615
Masovian Voivodeship,Poland,756135
Lublin Voivodeship,Poland,765876
Podlasie,Poland,761868
Lesser Poland Voivodeship,Poland,3094802
Łódź Voivodeship,Poland,3093133
Subcarpathian Voivodeship,Poland,858788
Warmian-Masurian Voivodeship,Poland,858791
Świętokrzyskie,Poland,858790
Silesian Voivodeship,Poland,11748058
Greater Poland Voivodeship,Poland,3088171
Lower Silesian Voivodeship,Poland,3081368
Lubusz,Poland,3337494
Kujawsko-Pomorskie,Poland,3102014
Pomeranian Voivodeship,Poland,3083829
West Pomeranian Voivodeship,Poland,3083829
Opole Voivodeship,Poland,3090048
Saint-Pierre,Saint Pierre and Miquelon,3424932
Aguadilla,Puerto Rico,4562512
Arecibo,Puerto Rico,4562635
Barceloneta,Puerto Rico,4562771
Bayamón,Puerto Rico,4562831
Caguas,Puerto Rico,4563008
Toa Baja,Puerto Rico,4568408
Carolina,Puerto Rico,4563243
Catano,Puerto Rico,4563299
Cayey,Puerto Rico,4563309
Fajardo,Puerto Rico,4564946
Guayama,Puerto Rico,4565107
Guaynabo,Puerto Rico,4565119
Humacao,Puerto Rico,4565449
Manati,Puerto Rico,4566138
Mayaguez,Puerto Rico,4566385
Ponce,Puerto Rico,4566880
San Juan,Puerto Rico,4568127
Trujillo Alto,Puerto Rico,4568451
Vega Baja,Puerto Rico,4568533
Yauco,Puerto Rico,4568918
Gaza Strip,Palestinian Territory,281133
West Bank,Palestinian Territory,282615
Lisbon,Portugal,2267057
Santarém,Portugal,2263480
Setúbal,Portugal,2262963
Faro,Portugal,2268337
Portalegre,Portugal,2264507
Leiria,Portugal,2267095
Madeira,Portugal,2593105
Évora,Portugal,2268404
Castelo Branco,Portugal,2269513
Beja,Portugal,2270984
Viseu,Portugal,2732264
Vila Real,Portugal,2732438
Porto,Portugal,2735943
Viana do Castelo,Portugal,2732772
Guarda,Portugal,2738785
Aveiro,Portugal,2742611
Braga,Portugal,2742032
Coimbra,Portugal,2740636
Bragança,Portugal,2742026
Azores,Portugal,3411865
Melekeok,Palau,4037930
Guairá,Paraguay,3438049
Presidente Hayes,Paraguay,3437443
Central,Paraguay,3439137
Misiones,Paraguay,3437727
Alto Paraná,Paraguay,3439440
Ñeembucú,Paraguay,3437677
Amambay,Paraguay,3439433
Itapúa,Paraguay,3437923
Caaguazú,Paraguay,3439312
Concepción,Paraguay,3438833
Caazapá,Paraguay,3439296
Cordillera,Paraguay,3438827
Asunción,Paraguay,3474570
Baladīyat Umm Şalāl,Qatar,389467
Baladīyat ar Rayyān,Qatar,389469
Al Wakrah,Qatar,389472
Al Khawr,Qatar,389465
Baladīyat ad Dawḩah,Qatar,389470
Réunion,Reunion,935317
Teleorman,Romania,665283
Braşov,Romania,683843
Sălaj,Romania,668248
Hunedoara,Romania,675917
Ilfov,Romania,865518
Maramureş,Romania,673887
Suceava,Romania,665849
Vaslui,Romania,663116
Ialomiţa,Romania,675848
Cluj,Romania,681291
Tulcea,Romania,664517
Mureş,Romania,672628
Covasna,Romania,680428
Neamţ,Romania,672460
Gorj,Romania,676898
Dâmboviţa,Romania,679385
Timiş,Romania,665091
Galaţi,Romania,677692
Olt,Romania,671857
Sibiu,Romania,667267
Alba,Romania,686581
Satu Mare,Romania,667869
Bihor,Romania,684878
Vâlcea,Romania,662892
Buzău,Romania,683121
Caraş-Severin,Romania,682714
Prahova,Romania,669737
Argeş,Romania,686192
Călăraşi,Romania,683016
Harghita,Romania,676309
Constanța,Romania,680962
Bacău,Romania,685947
Iaşi,Romania,675809
Giurgiu,Romania,677104
Vrancea,Romania,662447
Dolj,Romania,679134
Mehedinţi,Romania,673612
Botoşani,Romania,684038
Bucureşti,Romania,683504
Brăila,Romania,683901
Bistriţa-Năsăud,Romania,684647
Arad,Romania,686253
Vojvodina,Serbia,784272
Central Serbia,Serbia,785958
Tverskaya,Russia,480041
St.-Petersburg,Russia,536203
Rjazan,Russia,500059
Moscow,Russia,524894
Rostov,Russia,501165
MO,Russia,524304
Chelyabinsk,Russia,1508290
Brjansk,Russia,571473
Volgograd,Russia,472755
Samara,Russia,499068
Tambov,Russia,484638
Stavropol'skiy,Russia,487839
Kursk,Russia,538555
Tatarstan,Russia,484048
Karachayevo-Cherkesiya,Russia,552927
Nizjnij Novgorod,Russia,559838
Penza,Russia,511555
Murmansk,Russia,524304
Vladimir,Russia,826294
Mariy-El,Russia,529352
Krasnodarskiy,Russia,542415
Saratov,Russia,498671
Komi Republic,Russia,545854
Lipetsk,Russia,535120
Tula,Russia,480508
Orenburg,Russia,515001
Smolensk,Russia,491684
Jaroslavl,Russia,468898
Kirov,Russia,548389
Bashkortostan,Russia,578853
Arkhangelskaya,Russia,581043
Adygeya,Russia,584222
Leningrad,Russia,536199
Udmurtiya,Russia,479613
Voronezj,Russia,472039
Vologda,Russia,472454
Kostroma,Russia,543871
North Ossetia,Russia,519969
Ivanovo,Russia,555235
Perm,Russia,9072681
Pskov,Russia,504338
Belgorod,Russia,578071
Novgorod,Russia,519324
Chechnya,Russia,569665
Ulyanovsk,Russia,479119
Kabardino-Balkariya,Russia,554667
Ingushetiya,Russia,556349
Kaliningrad,Russia,554230
Kaluga,Russia,553899
Republic of Karelia,Russia,552548
Chuvashia,Russia,567395
Sverdlovsk,Russia,1490542
Mordoviya,Russia,525369
Orjol,Russia,514801
Nenetskiy Avtonomnyy Okrug,Russia,522652
Dagestan,Russia,567293
Astrakhan,Russia,580491
Kalmykiya,Russia,553972
Tjumen,Russia,1488747
Altai Krai,Russia,1511732
Kemerovo,Russia,1503900
Krasnoyarskiy,Russia,1502020
Khanty-Mansiyskiy Avtonomnyy Okrug,Russia,1503773
Tomsk,Russia,1489421
Novosibirsk,Russia,1496745
Irkutsk,Russia,2023468
Yamalo-Nenetskiy Avtonomnyy Okrug,Russia,1486462
Omsk,Russia,1496152
Kurgan,Russia,1501312
Khakasiya,Russia,1503834
Altai Republic,Russia,1506272
Tyva,Russia,1488873
Amur,Russia,2027748
Sakha,Russia,2013162
Khabarovsk Krai,Russia,2022888
Primorskiy,Russia,2017623
Respublika Buryatiya,Russia,2050915
Transbaikal Territory,Russia,7779061
Jewish Autonomous Oblast,Russia,2026639
Kamtsjatka,Russia,2125072
Sakhalin,Russia,2121529
Magadan,Russia,2123627
Eastern Province,Rwanda,202059
Northern Province,Rwanda,6413339
Southern Province,Rwanda,6413341
Kigali,Rwanda,202059
Western Province,Rwanda,6413340
Al Madīnah al Munawwarah,Saudi Arabia,109224
Minţaqat Tabūk,Saudi Arabia,101627
Northern Borders,Saudi Arabia,109579
Makkah,Saudi Arabia,104514
Eastern Province,Saudi Arabia,108241
Al Jawf,Saudi Arabia,109470
Jizan,Saudi Arabia,105298
Minţaqat ‘Asīr,Saudi Arabia,108179
Najrān,Saudi Arabia,103628
Ḩāʼil,Saudi Arabia,106280
Al-Qassim,Saudi Arabia,108933
Ar Riyāḑ,Saudi Arabia,108411
Minţaqat al Bāḩah,Saudi Arabia,109954
Guadalcanal,Solomon Islands,2108831
English River,Seychelles,241302
Central Darfur,Sudan,8394436
Al Jazīrah,Sudan,408648
Shamāl Kurdufān,Sudan,408667
Khartoum,Sudan,379253
Red Sea,Sudan,408646
White Nile,Sudan,408653
Sinnār,Sudan,408669
River Nile,Sudan,408664
Northern State,Sudan,378389
Kassala,Sudan,408663
Southern Kordofan,Sudan,408661
Al Qaḑārif,Sudan,408649
Blue Nile,Sudan,408654
West Kordofan State,Sudan,408659
Western Darfur,Sudan,408658
Northern Darfur,Sudan,408666
Eastern Darfur,Sudan,8394435
Västerbotten,Sweden,2664415
Norrbotten,Sweden,604010
Skåne,Sweden,3337385
Gotland,Sweden,2711508
Kronoberg,Sweden,2699050
Kalmar,Sweden,2702259
Västmanland,Sweden,2664179
Jönköping,Sweden,2702976
Halland,Sweden,2708794
Västra Götaland,Sweden,3337386
Stockholm,Sweden,2673722
Uppsala,Sweden,2666218
Västernorrland,Sweden,2664292
Gävleborg,Sweden,2712411
Jämtland,Sweden,2703330
Örebro,Sweden,2686655
Södermanland,Sweden,2676207
Östergötland,Sweden,2685867
Värmland,Sweden,2664870
Blekinge,Sweden,2721357
Dalarna,Sweden,2699767
Central Singapore,Singapore,11605743
Saint Helena,Saint Helena,3370751
Trbovlje,Slovenia,3188914
Velenje,Slovenia,3189074
Ptuj,Slovenia,3192240
Novo Mesto,Slovenia,3194350
Maribor,Slovenia,3195505
Ljubljana,Slovenia,3239318
Kranj,Slovenia,3197377
Koper-Capodistria,Slovenia,3197752
Celje,Slovenia,3202780
Svalbard,Svalbard and Jan Mayen,607072
Prešovský,Slovakia,865085
Košický,Slovakia,865084
Banskobystrický,Slovakia,3343954
Nitriansky,Slovakia,3343956
Žilinský,Slovakia,3056506
Trnavský,Slovakia,3343958
Trenčiansky,Slovakia,3343957
Bratislavský,Slovakia,3343955
Western Area,Sierra Leone,2403068
Eastern Province,Sierra Leone,2409543
Northern Province,Sierra Leone,2404798
Southern Province,Sierra Leone,2403745
San Marino,San Marino,3168068
Ziguinchor,Senegal,2243939
Kolda,Senegal,2249781
Diourbel,Senegal,2252308
Thiès,Senegal,2244800
Tambacounda,Senegal,2244990
Sédhiou,Senegal,7303937
Saint-Louis,Senegal,2246451
Fatick,Senegal,2251910
Dakar,Senegal,2253350
Kaolack,Senegal,2250804
Louga,Senegal,2249221
Matam,Senegal,2248753
Kédougou,Senegal,7303936
Kaffrine,Senegal,7303935
Lower Shabeelle,Somalia,51966
Bari,Somalia,64661
Banaadir,Somalia,64833
Gedo,Somalia,58802
Lower Juba,Somalia,56083
Middle Juba,Somalia,56084
Middle Shabele,Somalia,51967
Woqooyi Galbeed,Somalia,50360
Nugaal,Somalia,53477
Mudug,Somalia,53707
Sanaag,Somalia,52187
Galguduud,Somalia,59362
Bay,Somalia,64538
Hiiraan,Somalia,57060
Togdheer,Somalia,51230
Sool,Somalia,6268947
Awdal,Somalia,6268943
Paramaribo,Suriname,3383329
Wanica,Suriname,3382761
Central Equatoria,South Sudan,408655
Western Equatoria,South Sudan,408656
Western Bahr al Ghazal,South Sudan,408657
Northern Bahr al Ghazal,South Sudan,408665
Eastern Equatoria,South Sudan,379351
Warrap,South Sudan,408670
Lakes,South Sudan,408647
Upper Nile,South Sudan,381229
Jonglei,South Sudan,408662
São Tomé Island,Sao Tome and Principe,2410764
La Paz,El Salvador,3585087
Usulután,El Salvador,3582882
San Salvador,El Salvador,3583360
Sonsonate,El Salvador,3583101
Cabañas,El Salvador,3587217
San Vicente,El Salvador,3583176
Santa Ana,El Salvador,3583332
San Miguel,El Salvador,3583462
Cuscatlán,El Salvador,3586831
Morazán,El Salvador,3584317
La Libertad,El Salvador,3585155
La Unión,El Salvador,3584767
Chalatenango,El Salvador,3587090
Ahuachapán,El Salvador,3587425
Rif-dimashq,Syria,170652
Hama,Syria,170015
Tartus,Syria,163342
Aleppo,Syria,170062
Homs,Syria,8378566
Daraa,Syria,170903
Deir ez-Zor,Syria,170792
Idlib,Syria,169387
Latakia,Syria,173578
Dimashq,Syria,170652
Al-Hasakah,Syria,173813
Ar-Raqqah,Syria,172957
As-Suwayda,Syria,172410
Quneitra,Syria,173336
Hhohho,Swaziland,935085
Manzini,Swaziland,934994
Ennedi-Ouest,Chad,8604857
Salamat,Chad,242048
Ouaddaï,Chad,242246
Moyen-Chari,Chad,2427315
Mayo-Kebbi Ouest,Chad,7603253
Batha,Chad,2435899
Chari-Baguirmi,Chad,2434478
Barh el Gazel,Chad,7603255
Logone Occidental,Chad,2429060
Guéra,Chad,2431555
Hadjer-Lamis,Chad,7603251
Kanem,Chad,2430873
Tandjilé,Chad,2425287
Mandoul,Chad,7603252
Logone Oriental,Chad,2429058
Mayo-Kebbi Est,Chad,2428132
Kerguelen,French Southern Territories,1546558
Maritime,Togo,2365173
Centrale,Togo,2367237
Plateaux,Togo,2364370
Kara,Togo,2597439
Savanes,Togo,2364205
Phuket,Thailand,1151253
Prachuap Khiri Khan,Thailand,1151073
Phetchaburi,Thailand,1151416
Trang,Thailand,1150006
Nakhon Si Thammarat,Thailand,1608525
Lampang,Thailand,1152472
Uthai Thani,Thailand,1149965
Kanchanaburi,Thailand,1153080
Tak,Thailand,1150489
Surat Thani,Thailand,1150514
Sukhothai,Thailand,1150532
Chiang Mai,Thailand,1153670
Ratchaburi,Thailand,1150953
Ranong,Thailand,1150964
Phayao,Thailand,1607758
Lamphun,Thailand,1152467
Chiang Rai,Thailand,1153668
Nakhon Sawan,Thailand,1608526
Chumphon,Thailand,1153555
Krabi,Thailand,1152631
Kamphaeng Phet,Thailand,1153089
Kalasin,Thailand,1610468
Changwat Udon Thani,Thailand,1906686
Songkhla,Thailand,1606146
Nakhon Ratchasima,Thailand,1608528
Samut Prakan,Thailand,1606589
Changwat Nong Bua Lamphu,Thailand,1906690
Yasothon,Thailand,1604767
Pattani,Thailand,1607976
Yala,Thailand,1604869
Ang Thong,Thailand,1621034
Phetchabun,Thailand,1607736
Changwat Ubon Ratchathani,Thailand,1906688
Loei,Thailand,1609070
Phra Nakhon Si Ayutthaya,Thailand,1607530
Sa Kaeo,Thailand,1906691
Uttaradit,Thailand,1605214
Trat,Thailand,1605277
Phichit,Thailand,1607724
Chanthaburi,Thailand,1611268
Nong Khai,Thailand,1608231
Narathiwat,Thailand,1608408
Surin,Thailand,1606029
Suphan Buri,Thailand,1606032
Sisaket,Thailand,1606238
Chon Buri,Thailand,1611108
Sing Buri,Thailand,1606269
Changwat Bueng Kan,Thailand,8133594
Sakon Nakhon,Thailand,1606789
Satun,Thailand,1606375
Sara Buri,Thailand,1606417
Samut Songkhram,Thailand,1606585
Samut Sakhon,Thailand,1606587
Nakhon Pathom,Thailand,1608533
Roi Et,Thailand,1607000
Rayong,Thailand,1607016
Buriram,Thailand,1611452
Prachin Buri,Thailand,1906687
Chaiyaphum,Thailand,1611406
Phrae,Thailand,1607551
Phitsanulok,Thailand,1607707
Phatthalung,Thailand,1607778
Chachoengsao,Thailand,1611438
Pathum Thani,Thailand,1607982
Nonthaburi,Thailand,1608132
Nan,Thailand,1608451
Nakhon Phanom,Thailand,1608530
Nakhon Nayok,Thailand,1608538
Mukdahan,Thailand,1608595
Maha Sarakham,Thailand,1608899
Lop Buri,Thailand,1609031
Bangkok,Thailand,1609348
Khon Kaen,Thailand,1609775
Chai Nat,Thailand,1611415
Amnat Charoen,Thailand,1906689
Khatlon,Tajikistan,1347488
Viloyati Sughd,Tajikistan,1221092
Republican Subordination,Tajikistan,6452615
Gorno-Badakhshan,Tajikistan,1221692
Dushanbe,Tajikistan,7280679
Cova Lima,East Timor,1639462
Liquiçá,East Timor,1637729
Bobonaro,East Timor,1648513
Díli,East Timor,1645456
Baucau,East Timor,1649538
Aileu,East Timor,1651815
Manufahi,East Timor,1636309
Lautém,East Timor,1638294
Balkan,Turkmenistan,162152
Ahal,Turkmenistan,162181
Daşoguz,Turkmenistan,601465
Mary,Turkmenistan,1218666
Lebap,Turkmenistan,1219651
Zaghwān,Tunisia,2464038
Tūnis,Tunisia,2464461
Tawzar,Tunisia,2464645
Tataouine,Tunisia,2464698
Al Qaşrayn,Tunisia,2473460
Nābul,Tunisia,2468576
Kef,Tunisia,2473637
Sūsah,Tunisia,2464912
Silyānah,Tunisia,2465027
Sīdī Bū Zayd,Tunisia,2465837
Al Munastīr,Tunisia,2473495
Şafāqis,Tunisia,2467450
Al Mahdīyah,Tunisia,2473574
Qibilī,Tunisia,2468014
Ariana,Tunisia,2473245
Gafsa,Tunisia,2468351
Qābis,Tunisia,2468365
Madanīn,Tunisia,2469470
Banzart,Tunisia,2472699
Manouba,Tunisia,6201192
Bājah,Tunisia,2472770
Jundūbah,Tunisia,2470085
Bin ‘Arūs,Tunisia,2472477
Al Qayrawān,Tunisia,2473451
Tongatapu,Tonga,4032279
Hakkâri,Turkey,312888
Yozgat,Turkey,296560
Mardin,Turkey,304794
Hatay,Turkey,312394
Aydın,Turkey,322819
Muğla,Turkey,304183
Isparta,Turkey,311071
Kayseri,Turkey,308463
Şanlıurfa,Turkey,298332
Muş,Turkey,304041
Van,Turkey,298113
Erzincan,Turkey,315372
Uşak,Turkey,298298
İzmir,Turkey,311044
Nevşehir,Turkey,303830
Manisa,Turkey,304825
Tunceli,Turkey,298845
Antalya,Turkey,323776
Kütahya,Turkey,305267
Bitlis,Turkey,321022
Mersin,Turkey,311728
Balıkesir,Turkey,322164
Bingöl,Turkey,321079
Sivas,Turkey,300617
Şırnak,Turkey,443189
Diyarbakır,Turkey,316540
Siirt,Turkey,300821
Konya,Turkey,306569
Ankara,Turkey,323784
Denizli,Turkey,317106
Afyonkarahisar,Turkey,325302
Kahramanmaraş,Turkey,310858
Ağrı,Turkey,325163
Erzurum,Turkey,315367
Osmaniye,Turkey,443183
Aksaray,Turkey,443185
Gaziantep,Turkey,314829
Niğde,Turkey,303826
Kırşehir,Turkey,307513
Malatya,Turkey,304919
Batman,Turkey,443186
Adana,Turkey,325361
Elazığ,Turkey,315807
Kırıkkale,Turkey,443188
Kilis,Turkey,443213
Karaman,Turkey,443187
Adıyaman,Turkey,325329
Iğdır,Turkey,443184
Çanakkale Province,Turkey,749778
Eskişehir,Turkey,315201
Burdur,Turkey,320390
Bilecik,Turkey,321122
Zonguldak,Turkey,737021
Tokat,Turkey,738742
Istanbul,Turkey,745042
Trabzon,Turkey,738647
Bursa,Turkey,750268
Kocaeli,Turkey,742865
Yalova,Turkey,862469
Samsun,Turkey,740263
Edirne,Turkey,747711
Ordu,Turkey,741098
Kastamonu,Turkey,743881
Giresun,Turkey,746878
Tekirdağ,Turkey,738926
Amasya,Turkey,752014
Çorum,Turkey,748877
Sinop,Turkey,739598
Kars,Turkey,743942
Sakarya,Turkey,740352
Karabük,Turkey,862468
Rize,Turkey,740481
Kırklareli,Turkey,743165
Gümüşhane,Turkey,746423
Artvin,Turkey,751816
Bolu,Turkey,750510
Düzce,Turkey,865521
Çankırı,Turkey,749747
Bayburt,Turkey,862471
Bartın,Turkey,862467
Ardahan,Turkey,862470
Tunapuna/Piarco,Trinidad and Tobago,7521947
Tobago,Trinidad and Tobago,3573591
Sangre Grande,Trinidad and Tobago,7521944
City of San Fernando,Trinidad and Tobago,3573739
Mayaro,Trinidad and Tobago,3574155
City of Port of Spain,Trinidad and Tobago,3573891
Point Fortin,Trinidad and Tobago,7521943
San Juan/Laventille,Trinidad and Tobago,7521946
Chaguanas,Trinidad and Tobago,7521937
Borough of Arima,Trinidad and Tobago,3575052
Funafuti,Tuvalu,2110384
Taiwan,Taiwan,1668284
Taipei,Taiwan,7280290
Kaohsiung,Taiwan,7280289
Fukien,Taiwan,7280288
Zanzibar Urban/West,Tanzania,148724
Pemba North,Tanzania,150733
Mbeya,Tanzania,154375
Pwani,Tanzania,150602
Geita,Tanzania,8469239
Kigoma,Tanzania,157732
Katavi,Tanzania,8469240
Mwanza,Tanzania,152219
Arusha,Tanzania,161322
Tabora,Tanzania,149653
Shinyanga,Tanzania,150004
Mara,Tanzania,154775
Tanga,Tanzania,149595
Rukwa,Tanzania,150442
Simiyu,Tanzania,8469238
Zanzibar Central/South,Tanzania,148728
Singida,Tanzania,149876
Kilimanjaro,Tanzania,157449
Kagera,Tanzania,148679
Njombe,Tanzania,8469241
Morogoro,Tanzania,153214
Manyara,Tanzania,435764
Dodoma,Tanzania,160192
Ruvuma,Tanzania,877416
Dar es Salaam,Tanzania,160260
Iringa,Tanzania,159067
Lindi,Tanzania,155946
Pemba South,Tanzania,150732
Mtwara,Tanzania,877744
Sumy,Ukraine,692196
Donetsk,Ukraine,709716
Zaporizhia,Ukraine,687699
Cherkasy,Ukraine,710802
Lviv,Ukraine,702549
Kirovohrad,Ukraine,705811
Kharkiv,Ukraine,706482
Zhytomyr,Ukraine,686966
Vinnyts'ka,Ukraine,689559
Dnipropetrovsk,Ukraine,709929
Rivne,Ukraine,695592
Odessa,Ukraine,698738
Crimea,Ukraine,703883
Kiev,Ukraine,703447
Zakarpattia,Ukraine,687869
Mykolaiv,Ukraine,700567
Volyn,Ukraine,689064
Kherson,Ukraine,706442
Ternopil,Ukraine,691649
Luhansk,Ukraine,702657
Khmelnytskyi,Ukraine,706370
Misto Sevastopol’,Ukraine,694422
Chernihiv,Ukraine,710734
Poltava,Ukraine,696634
Ivano-Frankivsk,Ukraine,707470
Kyiv City,Ukraine,703447
Chernivtsi,Ukraine,710720
Northern Region,Uganda,8260674
Central Region,Uganda,234594
Eastern Region,Uganda,8260673
Western Region,Uganda,8260675
Virginia,United States,4826850
Alabama,United States,4829764
Kentucky,United States,6254925
Arkansas,United States,4099753
"Washington, D.C.",United States,4138106
Delaware,United States,4142224
Florida,United States,4155751
Georgia,United States,4197000
Illinois,United States,4896861
Indiana,United States,4921868
Kansas,United States,4273857
Louisiana,United States,4331987
Maryland,United States,4361885
Missouri,United States,4398678
Mississippi,United States,4436296
North Carolina,United States,4482348
New Jersey,United States,5101760
Ohio,United States,5165418
Oklahoma,United States,4544379
Pennsylvania,United States,6254927
South Carolina,United States,4482348
Tennessee,United States,4662168
Texas,United States,4736286
Connecticut,United States,4831725
Iowa,United States,4862182
Massachusetts,United States,6254926
Maine,United States,4971068
Michigan,United States,5001836
Minnesota,United States,5037779
North Dakota,United States,5769223
Nebraska,United States,5073708
New Hampshire,United States,5090174
New York,United States,5128638
Rhode Island,United States,5224323
South Dakota,United States,5769223
Vermont,United States,5242283
Wisconsin,United States,5279468
West Virginia,United States,4826850
California,United States,5332921
Arizona,United States,5551752
Colorado,United States,5417618
New Mexico,United States,5481136
Nevada,United States,5509151
Utah,United States,5549030
Alaska,United States,5879092
Idaho,United States,5596512
Montana,United States,5667009
Oregon,United States,5744337
Washington,United States,5815135
Wyoming,United States,5843591
Hawaii,United States,5855797
Río Negro,Uruguay,3440789
Flores,Uruguay,3442587
Treinta y Tres,Uruguay,3439780
Tacuarembó,Uruguay,3440033
Canelones,Uruguay,3443411
San José,Uruguay,3440645
Maldonado,Uruguay,3441890
Salto,Uruguay,3440711
Rocha,Uruguay,3440771
Rivera,Uruguay,3440780
Paysandú,Uruguay,3441242
Montevideo,Uruguay,3441572
Lavalleja,Uruguay,3442007
Soriano,Uruguay,3440054
Cerro Largo,Uruguay,3443173
Florida,Uruguay,3442584
Durazno,Uruguay,3442720
Colonia,Uruguay,3443025
Artigas,Uruguay,3443756
Karakalpakstan,Uzbekistan,453752
Jizzax,Uzbekistan,1484844
Samarqand,Uzbekistan,1114927
Surxondaryo,Uzbekistan,1114926
Qashqadaryo,Uzbekistan,1114928
Bukhara,Uzbekistan,1114929
Toshkent,Uzbekistan,1484838
Fergana,Uzbekistan,1484845
Sirdaryo,Uzbekistan,1484840
Navoiy,Uzbekistan,1484841
Namangan,Uzbekistan,1484842
Xorazm,Uzbekistan,1484843
Toshkent Shahri,Uzbekistan,1484839
Andijon,Uzbekistan,1484846
Saint George,Saint Vincent and the Grenadines,3577819
Nueva Esparta,Venezuela,3631462
Anzoátegui,Venezuela,3649198
Barinas,Venezuela,3648544
Guárico,Venezuela,3640017
Yaracuy,Venezuela,3625210
Aragua,Venezuela,3649110
Portuguesa,Venezuela,3629941
Trujillo,Venezuela,3625974
Carabobo,Venezuela,3646751
Bolívar,Venezuela,3648106
Delta Amacuro,Venezuela,3644541
Cojedes,Venezuela,3645386
Táchira,Venezuela,3626553
Miranda,Venezuela,3632191
Zulia,Venezuela,3625035
Lara,Venezuela,3636539
Falcón,Venezuela,3640873
Amazonas,Venezuela,3649302
Mérida,Venezuela,3632306
Vargas,Venezuela,3830309
Sucre,Venezuela,3626655
Capital,Venezuela,3640847
Monagas,Venezuela,3632100
Apure,Venezuela,3649151
Saint Thomas Island,U.S. Virgin Islands,7267904
Saint Croix Island,U.S. Virgin Islands,7267902
Nghệ An,Vietnam,1559969
Yên Bái,Vietnam,1559978
Bà Rịa-Vũng Tàu,Vietnam,1584534
Hau Giang,Vietnam,7506719
Vĩnh Phúc,Vietnam,1905856
Vĩnh Long,Vietnam,1559977
Phú Thọ,Vietnam,1905577
Quảng Ninh,Vietnam,1568758
Phú Yên,Vietnam,1569805
Tuyên Quang,Vietnam,1559976
Trà Vinh,Vietnam,1559975
Bình Dương,Vietnam,1905475
Ho Chi Minh City,Vietnam,1580578
Thanh Hóa,Vietnam,1566165
Thái Nguyên,Vietnam,1905497
Thái Bình,Vietnam,1566338
Tây Ninh,Vietnam,1566557
Long An,Vietnam,1575788
Quảng Nam,Vietnam,1905516
Ha Nội,Vietnam,1581129
Sơn La,Vietnam,1567643
Sóc Trăng,Vietnam,1559972
Lào Cai,Vietnam,1562412
Đồng Tháp,Vietnam,None
Kiến Giang,Vietnam,1579008
Bình Định,Vietnam,None
Quảng Ngãi,Vietnam,1568769
Gia Lai,Vietnam,1581088
Hà Nam,Vietnam,1905637
Bình Thuận,Vietnam,1581882
Ninh Thuận,Vietnam,1559971
Ninh Bình,Vietnam,1559970
Khánh Hòa,Vietnam,1579634
Nam Định,Vietnam,None
Tiền Giang,Vietnam,1564676
An Giang,Vietnam,1594446
Lạng Sơn,Vietnam,1576632
Kon Tum,Vietnam,1565088
Hưng Yên,Vietnam,1905699
Thừa Thiên-Huế,Vietnam,1565033
Hòa Bình,Vietnam,1572594
Hà Tĩnh,Vietnam,1580700
Hải Phòng,Vietnam,1581297
Hải Dương,Vietnam,1905686
Hà Giang,Vietnam,1581030
Bình Phước,Vietnam,1905480
Quảng Bình,Vietnam,1568839
Quảng Trị,Vietnam,1568733
Tỉnh Ðiện Biên,Vietnam,1905099
Đà Nẵng,Vietnam,None
Lâm Đồng,Vietnam,None
Cao Bằng,Vietnam,1586182
Cần Thơ,Vietnam,1581188
Cà Mau,Vietnam,1905678
Ðắc Lắk,Vietnam,None
Đồng Nai,Vietnam,None
Bến Tre,Vietnam,1587974
Bắc Ninh,Vietnam,1905412
Bạc Liêu,Vietnam,1905675
Bắc Giang,Vietnam,1905419
Bắc Kạn,Vietnam,1905669
Shefa,Vanuatu,2208267
Circonscription d'Uvéa,Wallis and Futuna,None
Tuamasaga,Samoa,4034977
Mitrovica,Kosovo,10097358
Gjilan,Kosovo,10097357
Ferizaj,Kosovo,10096138
Prizren,Kosovo,10097361
Pristina,Kosovo,10097360
Pec,Kosovo,10097359
Gjakova,Kosovo,10096859
Abyan,Yemen,80425
Muḩāfaz̧at al Ḩudaydah,Yemen,79416
Ibb,Yemen,6201196
Ta‘izz,Yemen,70222
Sanaa,Yemen,71132
Şa‘dah,Yemen,71333
Ma’rib,Yemen,72966
Laḩij,Yemen,6201197
Ḩajjah,Yemen,6201195
Dhamār,Yemen,76183
Shabwah,Yemen,70935
Omran,Yemen,6201194
Muḩāfaz̧at Ḩaḑramawt,Yemen,75411
Al Jawf,Yemen,74222
Al Bayḑāʼ,Yemen,79838
Aden,Yemen,8505034
Mamoudzou,Mayotte,7521431
Dzaoudzi,Mayotte,7521428
Koungou,Mayotte,7521430
Gauteng,South Africa,1085594
North-West,South Africa,1085598
Mpumalanga,South Africa,1085595
Orange Free State,South Africa,967573
Northern Cape,South Africa,1085596
Limpopo,South Africa,1085597
KwaZulu-Natal,South Africa,972062
Eastern Cape,South Africa,1085593
Western Cape,South Africa,1085599
Luapula,Zambia,909845
Northern,Zambia,895949
Southern,Zambia,896972
Western,Zambia,900594
Eastern,Zambia,895949
Copperbelt,Zambia,917524
Central,Zambia,921064
Lusaka,Zambia,909129
North-Western,Zambia,900594
Masvingo,Zimbabwe,886761
Matabeleland North,Zimbabwe,886748
Midlands,Zimbabwe,886119
Manicaland,Zimbabwe,887358
Mashonaland West,Zimbabwe,886841
Mashonaland East,Zimbabwe,886842
Harare,Zimbabwe,1105844
Bulawayo,Zimbabwe,1105843
Mashonaland Central,Zimbabwe,886843
Matabeleland South,Zimbabwe,886747
